{
  "AC": {
    "name": "Ascension Island",
    "nativeName": "Ascension Island",
    "continent": "AF",
    "capital": "Georgetown",
    "currencyCode": "SHP",
    "languages": [
      "en"
    ],
    "dialCode": "247",
    "flag": "ğŸ‡¦ğŸ‡¨",
    "isoCode": "AC"
  },
  "AD": {
    "name": "Andorra",
    "nativeName": "Andorra",
    "continent": "EU",
    "capital": "Andorra la Vella",
    "currencyCode": "EUR",
    "languages": [
      "ca"
    ],
    "dialCode": "376",
    "flag": "ğŸ‡¦ğŸ‡©",
    "isoCode": "AD"
  },
  "AE": {
    "name": "United Arab Emirates",
    "nativeName": "Ø¯ÙˆÙ„Ø© Ø§Ù„Ø¥Ù…Ø§Ø±Ø§Øª Ø§Ù„Ø¹Ø±Ø¨ÙŠØ© Ø§Ù„Ù…ØªØ­Ø¯Ø©",
    "continent": "AS",
    "capital": "Abu Dhabi",
    "currencyCode": "AED",
    "languages": [
      "ar"
    ],
    "dialCode": "971",
    "flag": "ğŸ‡¦ğŸ‡ª",
    "isoCode": "AE"
  },
  "AF": {
    "name": "Afghanistan",
    "nativeName": "Ø§ÙØºØ§Ù†Ø³ØªØ§Ù†",
    "continent": "AS",
    "capital": "Kabul",
    "currencyCode": "AFN",
    "languages": [
      "ps",
      "uz",
      "tk"
    ],
    "dialCode": "93",
    "flag": "ğŸ‡¦ğŸ‡«",
    "isoCode": "AF"
  },
  "AG": {
    "name": "Antigua and Barbuda",
    "nativeName": "Antigua and Barbuda",
    "continent": "NA",
    "capital": "Saint John's",
    "currencyCode": "XCD",
    "languages": [
      "en"
    ],
    "dialCode": "1",
    "flag": "ğŸ‡¦ğŸ‡¬",
    "isoCode": "AG"
  },
  "AI": {
    "name": "Anguilla",
    "nativeName": "Anguilla",
    "continent": "NA",
    "capital": "The Valley",
    "currencyCode": "XCD",
    "languages": [
      "en"
    ],
    "dialCode": "1",
    "flag": "ğŸ‡¦ğŸ‡®",
    "isoCode": "AI"
  },
  "AL": {
    "name": "Albania",
    "nativeName": "ShqipÃ«ria",
    "continent": "EU",
    "capital": "Tirana",
    "currencyCode": "ALL",
    "languages": [
      "sq"
    ],
    "dialCode": "355",
    "flag": "ğŸ‡¦ğŸ‡±",
    "isoCode": "AL"
  },
  "AM": {
    "name": "Armenia",
    "nativeName": "Õ€Õ¡ÕµÕ¡Õ½Õ¿Õ¡Õ¶",
    "continent": "AS",
    "capital": "Yerevan",
    "currencyCode": "AMD",
    "languages": [
      "hy",
      "ru"
    ],
    "dialCode": "374",
    "flag": "ğŸ‡¦ğŸ‡²",
    "isoCode": "AM"
  },
  "AO": {
    "name": "Angola",
    "nativeName": "Angola",
    "continent": "AF",
    "capital": "Luanda",
    "currencyCode": "AOA",
    "languages": [
      "pt"
    ],
    "dialCode": "244",
    "flag": "ğŸ‡¦ğŸ‡´",
    "isoCode": "AO"
  },
  "AR": {
    "name": "Argentina",
    "nativeName": "Argentina",
    "continent": "SA",
    "capital": "Buenos Aires",
    "currencyCode": "ARS",
    "languages": [
      "es",
      "gn"
    ],
    "dialCode": "54",
    "flag": "ğŸ‡¦ğŸ‡·",
    "isoCode": "AR"
  },
  "AS": {
    "name": "American Samoa",
    "nativeName": "American Samoa",
    "continent": "OC",
    "capital": "Pago Pago",
    "currencyCode": "USD",
    "languages": [
      "en",
      "sm"
    ],
    "dialCode": "1",
    "flag": "ğŸ‡¦ğŸ‡¸",
    "isoCode": "AS"
  },
  "AT": {
    "name": "Austria",
    "nativeName": "Ã–sterreich",
    "continent": "EU",
    "capital": "Vienna",
    "currencyCode": "EUR",
    "languages": [
      "de"
    ],
    "dialCode": "43",
    "flag": "ğŸ‡¦ğŸ‡¹",
    "isoCode": "AT"
  },
  "AU": {
    "name": "Australia",
    "nativeName": "Australia",
    "continent": "OC",
    "capital": "Canberra",
    "currencyCode": "AUD",
    "languages": [
      "en"
    ],
    "dialCode": "61",
    "flag": "ğŸ‡¦ğŸ‡º",
    "isoCode": "AU"
  },
  "AW": {
    "name": "Aruba",
    "nativeName": "Aruba",
    "continent": "NA",
    "capital": "Oranjestad",
    "currencyCode": "AWG",
    "languages": [
      "nl",
      "pa"
    ],
    "dialCode": "297",
    "flag": "ğŸ‡¦ğŸ‡¼",
    "isoCode": "AW"
  },
  "AX": {
    "name": "Ã…land",
    "nativeName": "Ã…land",
    "continent": "EU",
    "capital": "Mariehamn",
    "currencyCode": "EUR",
    "languages": [
      "sv"
    ],
    "dialCode": "358",
    "flag": "ğŸ‡¦ğŸ‡½",
    "isoCode": "AX"
  },
  "AZ": {
    "name": "Azerbaijan",
    "nativeName": "AzÉ™rbaycan",
    "continent": "AS",
    "capital": "Baku",
    "currencyCode": "AZN",
    "languages": [
      "az"
    ],
    "dialCode": "994",
    "flag": "ğŸ‡¦ğŸ‡¿",
    "isoCode": "AZ"
  },
  "BA": {
    "name": "Bosnia and Herzegovina",
    "nativeName": "Bosna i Hercegovina",
    "continent": "EU",
    "capital": "Sarajevo",
    "currencyCode": "BAM",
    "languages": [
      "bs",
      "hr",
      "sr"
    ],
    "dialCode": "387",
    "flag": "ğŸ‡§ğŸ‡¦",
    "isoCode": "BA"
  },
  "BB": {
    "name": "Barbados",
    "nativeName": "Barbados",
    "continent": "NA",
    "capital": "Bridgetown",
    "currencyCode": "BBD",
    "languages": [
      "en"
    ],
    "dialCode": "1",
    "flag": "ğŸ‡§ğŸ‡§",
    "isoCode": "BB"
  },
  "BD": {
    "name": "Bangladesh",
    "nativeName": "Bangladesh",
    "continent": "AS",
    "capital": "Dhaka",
    "currencyCode": "BDT",
    "languages": [
      "bn"
    ],
    "dialCode": "880",
    "flag": "ğŸ‡§ğŸ‡©",
    "isoCode": "BD"
  },
  "BE": {
    "name": "Belgium",
    "nativeName": "BelgiÃ«",
    "continent": "EU",
    "capital": "Brussels",
    "currencyCode": "EUR",
    "languages": [
      "nl",
      "fr",
      "de"
    ],
    "dialCode": "32",
    "flag": "ğŸ‡§ğŸ‡ª",
    "isoCode": "BE"
  },
  "BF": {
    "name": "Burkina Faso",
    "nativeName": "Burkina Faso",
    "continent": "AF",
    "capital": "Ouagadougou",
    "currencyCode": "XOF",
    "languages": [
      "fr",
      "ff"
    ],
    "dialCode": "226",
    "flag": "ğŸ‡§ğŸ‡«",
    "isoCode": "BF"
  },
  "BG": {
    "name": "Bulgaria",
    "nativeName": "Ğ‘ÑŠĞ»Ğ³Ğ°Ñ€Ğ¸Ñ",
    "continent": "EU",
    "capital": "Sofia",
    "currencyCode": "BGN",
    "languages": [
      "bg"
    ],
    "dialCode": "359",
    "flag": "ğŸ‡§ğŸ‡¬",
    "isoCode": "BG"
  },
  "BH": {
    "name": "Bahrain",
    "nativeName": "â€Ø§Ù„Ø¨Ø­Ø±ÙŠÙ†",
    "continent": "AS",
    "capital": "Manama",
    "currencyCode": "BHD",
    "languages": [
      "ar"
    ],
    "dialCode": "973",
    "flag": "ğŸ‡§ğŸ‡­",
    "isoCode": "BH"
  },
  "BI": {
    "name": "Burundi",
    "nativeName": "Burundi",
    "continent": "AF",
    "capital": "Bujumbura",
    "currencyCode": "BIF",
    "languages": [
      "fr",
      "rn"
    ],
    "dialCode": "257",
    "flag": "ğŸ‡§ğŸ‡®",
    "isoCode": "BI"
  },
  "BJ": {
    "name": "Benin",
    "nativeName": "BÃ©nin",
    "continent": "AF",
    "capital": "Porto-Novo",
    "currencyCode": "XOF",
    "languages": [
      "fr"
    ],
    "dialCode": "229",
    "flag": "ğŸ‡§ğŸ‡¯",
    "isoCode": "BJ"
  },
  "BL": {
    "name": "Saint BarthÃ©lemy",
    "nativeName": "Saint-BarthÃ©lemy",
    "continent": "NA",
    "capital": "Gustavia",
    "currencyCode": "EUR",
    "languages": [
      "fr"
    ],
    "dialCode": "590",
    "flag": "ğŸ‡§ğŸ‡±",
    "isoCode": "BL"
  },
  "BM": {
    "name": "Bermuda",
    "nativeName": "Bermuda",
    "continent": "NA",
    "capital": "Hamilton",
    "currencyCode": "BMD",
    "languages": [
      "en"
    ],
    "dialCode": "1",
    "flag": "ğŸ‡§ğŸ‡²",
    "isoCode": "BM"
  },
  "BN": {
    "name": "Brunei",
    "nativeName": "Negara Brunei Darussalam",
    "continent": "AS",
    "capital": "Bandar Seri Begawan",
    "currencyCode": "BND",
    "languages": [
      "ms"
    ],
    "dialCode": "673",
    "flag": "ğŸ‡§ğŸ‡³",
    "isoCode": "BN"
  },
  "BO": {
    "name": "Bolivia",
    "nativeName": "Bolivia",
    "continent": "SA",
    "capital": "Sucre",
    "currencyCode": "BOB",
    "languages": [
      "es",
      "ay",
      "qu"
    ],
    "dialCode": "591",
    "flag": "ğŸ‡§ğŸ‡´",
    "isoCode": "BO"
  },
  "BQ": {
    "name": "Bonaire",
    "nativeName": "Bonaire",
    "continent": "NA",
    "capital": "Kralendijk",
    "currencyCode": "USD",
    "languages": [
      "nl"
    ],
    "dialCode": "599",
    "flag": "ğŸ‡§ğŸ‡¶",
    "isoCode": "BQ"
  },
  "BR": {
    "name": "Brazil",
    "nativeName": "Brasil",
    "continent": "SA",
    "capital": "BrasÃ­lia",
    "currencyCode": "BRL",
    "languages": [
      "pt"
    ],
    "dialCode": "55",
    "flag": "ğŸ‡§ğŸ‡·",
    "isoCode": "BR"
  },
  "BS": {
    "name": "Bahamas",
    "nativeName": "Bahamas",
    "continent": "NA",
    "capital": "Nassau",
    "currencyCode": "BSD",
    "languages": [
      "en"
    ],
    "dialCode": "1",
    "flag": "ğŸ‡§ğŸ‡¸",
    "isoCode": "BS"
  },
  "BT": {
    "name": "Bhutan",
    "nativeName": "Ê¼brug-yul",
    "continent": "AS",
    "capital": "Thimphu",
    "currencyCode": "BTN",
    "languages": [
      "dz"
    ],
    "dialCode": "975",
    "flag": "ğŸ‡§ğŸ‡¹",
    "isoCode": "BT"
  },
  "BW": {
    "name": "Botswana",
    "nativeName": "Botswana",
    "continent": "AF",
    "capital": "Gaborone",
    "currencyCode": "BWP",
    "languages": [
      "en",
      "tn"
    ],
    "dialCode": "267",
    "flag": "ğŸ‡§ğŸ‡¼",
    "isoCode": "BW"
  },
  "BY": {
    "name": "Belarus",
    "nativeName": "Ğ‘ĞµĞ»Ğ°Ñ€ÑƒÌÑÑŒ",
    "continent": "EU",
    "capital": "Minsk",
    "currencyCode": "BYN",
    "languages": [
      "be",
      "ru"
    ],
    "dialCode": "375",
    "flag": "ğŸ‡§ğŸ‡¾",
    "isoCode": "BY"
  },
  "BZ": {
    "name": "Belize",
    "nativeName": "Belize",
    "continent": "NA",
    "capital": "Belmopan",
    "currencyCode": "BZD",
    "languages": [
      "en",
      "es"
    ],
    "dialCode": "501",
    "flag": "ğŸ‡§ğŸ‡¿",
    "isoCode": "BZ"
  },
  "CA": {
    "name": "Canada",
    "nativeName": "Canada",
    "continent": "NA",
    "capital": "Ottawa",
    "currencyCode": "CAD",
    "languages": [
      "en",
      "fr"
    ],
    "dialCode": "1",
    "flag": "ğŸ‡¨ğŸ‡¦",
    "isoCode": "CA"
  },
  "CC": {
    "name": "Cocos [Keeling] Islands",
    "nativeName": "Cocos (Keeling) Islands",
    "continent": "AS",
    "capital": "West Island",
    "currencyCode": "AUD",
    "languages": [
      "en"
    ],
    "dialCode": "61",
    "flag": "ğŸ‡¨ğŸ‡¨",
    "isoCode": "CC"
  },
  "CD": {
    "name": "Democratic Republic of the Congo",
    "nativeName": "RÃ©publique dÃ©mocratique du Congo",
    "continent": "AF",
    "capital": "Kinshasa",
    "currencyCode": "CDF",
    "languages": [
      "fr",
      "ln",
      "kg",
      "sw",
      "lu"
    ],
    "dialCode": "243",
    "flag": "ğŸ‡¨ğŸ‡©",
    "isoCode": "CD"
  },
  "CF": {
    "name": "Central African Republic",
    "nativeName": "KÃ¶dÃ¶rÃ¶sÃªse tÃ® BÃªafrÃ®ka",
    "continent": "AF",
    "capital": "Bangui",
    "currencyCode": "XAF",
    "languages": [
      "fr",
      "sg"
    ],
    "dialCode": "236",
    "flag": "ğŸ‡¨ğŸ‡«",
    "isoCode": "CF"
  },
  "CG": {
    "name": "Republic of the Congo",
    "nativeName": "RÃ©publique du Congo",
    "continent": "AF",
    "capital": "Brazzaville",
    "currencyCode": "XAF",
    "languages": [
      "fr",
      "ln"
    ],
    "dialCode": "242",
    "flag": "ğŸ‡¨ğŸ‡¬",
    "isoCode": "CG"
  },
  "CH": {
    "name": "Switzerland",
    "nativeName": "Schweiz",
    "continent": "EU",
    "capital": "Bern",
    "currencyCode": "CHE",
    "languages": [
      "de",
      "fr",
      "it"
    ],
    "dialCode": "41",
    "flag": "ğŸ‡¨ğŸ‡­",
    "isoCode": "CH"
  },
  "CI": {
    "name": "Ivory Coast",
    "nativeName": "CÃ´te d'Ivoire",
    "continent": "AF",
    "capital": "Yamoussoukro",
    "currencyCode": "XOF",
    "languages": [
      "fr"
    ],
    "dialCode": "225",
    "flag": "ğŸ‡¨ğŸ‡®",
    "isoCode": "CI"
  },
  "CK": {
    "name": "Cook Islands",
    "nativeName": "Cook Islands",
    "continent": "OC",
    "capital": "Avarua",
    "currencyCode": "NZD",
    "languages": [
      "en"
    ],
    "dialCode": "682",
    "flag": "ğŸ‡¨ğŸ‡°",
    "isoCode": "CK"
  },
  "CL": {
    "name": "Chile",
    "nativeName": "Chile",
    "continent": "SA",
    "capital": "Santiago",
    "currencyCode": "CLF",
    "languages": [
      "es"
    ],
    "dialCode": "56",
    "flag": "ğŸ‡¨ğŸ‡±",
    "isoCode": "CL"
  },
  "CM": {
    "name": "Cameroon",
    "nativeName": "Cameroon",
    "continent": "AF",
    "capital": "YaoundÃ©",
    "currencyCode": "XAF",
    "languages": [
      "en",
      "fr"
    ],
    "dialCode": "237",
    "flag": "ğŸ‡¨ğŸ‡²",
    "isoCode": "CM"
  },
  "CN": {
    "name": "China",
    "nativeName": "ä¸­å›½",
    "continent": "AS",
    "capital": "Beijing",
    "currencyCode": "CNY",
    "languages": [
      "zh"
    ],
    "dialCode": "86",
    "flag": "ğŸ‡¨ğŸ‡³",
    "isoCode": "CN"
  },
  "CO": {
    "name": "Colombia",
    "nativeName": "Colombia",
    "continent": "SA",
    "capital": "BogotÃ¡",
    "currencyCode": "COP",
    "languages": [
      "es"
    ],
    "dialCode": "57",
    "flag": "ğŸ‡¨ğŸ‡´",
    "isoCode": "CO"
  },
  "CR": {
    "name": "Costa Rica",
    "nativeName": "Costa Rica",
    "continent": "NA",
    "capital": "San JosÃ©",
    "currencyCode": "CRC",
    "languages": [
      "es"
    ],
    "dialCode": "506",
    "flag": "ğŸ‡¨ğŸ‡·",
    "isoCode": "CR"
  },
  "CU": {
    "name": "Cuba",
    "nativeName": "Cuba",
    "continent": "NA",
    "capital": "Havana",
    "currencyCode": "CUC",
    "languages": [
      "es"
    ],
    "dialCode": "53",
    "flag": "ğŸ‡¨ğŸ‡º",
    "isoCode": "CU"
  },
  "CV": {
    "name": "Cape Verde",
    "nativeName": "Cabo Verde",
    "continent": "AF",
    "capital": "Praia",
    "currencyCode": "CVE",
    "languages": [
      "pt"
    ],
    "dialCode": "238",
    "flag": "ğŸ‡¨ğŸ‡»",
    "isoCode": "CV"
  },
  "CW": {
    "name": "Curacao",
    "nativeName": "CuraÃ§ao",
    "continent": "NA",
    "capital": "Willemstad",
    "currencyCode": "ANG",
    "languages": [
      "nl",
      "pa",
      "en"
    ],
    "dialCode": "599",
    "flag": "ğŸ‡¨ğŸ‡¼",
    "isoCode": "CW"
  },
  "CX": {
    "name": "Christmas Island",
    "nativeName": "Christmas Island",
    "continent": "AS",
    "capital": "Flying Fish Cove",
    "currencyCode": "AUD",
    "languages": [
      "en"
    ],
    "dialCode": "61",
    "flag": "ğŸ‡¨ğŸ‡½",
    "isoCode": "CX"
  },
  "CY": {
    "name": "Cyprus",
    "nativeName": "ÎšÏÏ€ÏÎ¿Ï‚",
    "continent": "EU",
    "capital": "Nicosia",
    "currencyCode": "EUR",
    "languages": [
      "el",
      "tr",
      "hy"
    ],
    "dialCode": "357",
    "flag": "ğŸ‡¨ğŸ‡¾",
    "isoCode": "CY"
  },
  "CZ": {
    "name": "Czech Republic",
    "nativeName": "ÄŒeskÃ¡ republika",
    "continent": "EU",
    "capital": "Prague",
    "currencyCode": "CZK",
    "languages": [
      "cs",
      "sk"
    ],
    "dialCode": "420",
    "flag": "ğŸ‡¨ğŸ‡¿",
    "isoCode": "CZ"
  },
  "DE": {
    "name": "Germany",
    "nativeName": "Deutschland",
    "continent": "EU",
    "capital": "Berlin",
    "currencyCode": "EUR",
    "languages": [
      "de"
    ],
    "dialCode": "49",
    "flag": "ğŸ‡©ğŸ‡ª",
    "isoCode": "DE"
  },
  "DJ": {
    "name": "Djibouti",
    "nativeName": "Djibouti",
    "continent": "AF",
    "capital": "Djibouti",
    "currencyCode": "DJF",
    "languages": [
      "fr",
      "ar"
    ],
    "dialCode": "253",
    "flag": "ğŸ‡©ğŸ‡¯",
    "isoCode": "DJ"
  },
  "DK": {
    "name": "Denmark",
    "nativeName": "Danmark",
    "continent": "EU",
    "capital": "Copenhagen",
    "currencyCode": "DKK",
    "languages": [
      "da"
    ],
    "dialCode": "45",
    "flag": "ğŸ‡©ğŸ‡°",
    "isoCode": "DK"
  },
  "DM": {
    "name": "Dominica",
    "nativeName": "Dominica",
    "continent": "NA",
    "capital": "Roseau",
    "currencyCode": "XCD",
    "languages": [
      "en"
    ],
    "dialCode": "1",
    "flag": "ğŸ‡©ğŸ‡²",
    "isoCode": "DM"
  },
  "DO": {
    "name": "Dominican Republic",
    "nativeName": "RepÃºblica Dominicana",
    "continent": "NA",
    "capital": "Santo Domingo",
    "currencyCode": "DOP",
    "languages": [
      "es"
    ],
    "dialCode": "1",
    "flag": "ğŸ‡©ğŸ‡´",
    "isoCode": "DO"
  },
  "DZ": {
    "name": "Algeria",
    "nativeName": "Ø§Ù„Ø¬Ø²Ø§Ø¦Ø±",
    "continent": "AF",
    "capital": "Algiers",
    "currencyCode": "DZD",
    "languages": [
      "ar"
    ],
    "dialCode": "213",
    "flag": "ğŸ‡©ğŸ‡¿",
    "isoCode": "DZ"
  },
  "EC": {
    "name": "Ecuador",
    "nativeName": "Ecuador",
    "continent": "SA",
    "capital": "Quito",
    "currencyCode": "USD",
    "languages": [
      "es"
    ],
    "dialCode": "593",
    "flag": "ğŸ‡ªğŸ‡¨",
    "isoCode": "EC"
  },
  "EE": {
    "name": "Estonia",
    "nativeName": "Eesti",
    "continent": "EU",
    "capital": "Tallinn",
    "currencyCode": "EUR",
    "languages": [
      "et"
    ],
    "dialCode": "372",
    "flag": "ğŸ‡ªğŸ‡ª",
    "isoCode": "EE"
  },
  "EG": {
    "name": "Egypt",
    "nativeName": "Ù…ØµØ±â€",
    "continent": "AF",
    "capital": "Cairo",
    "currencyCode": "EGP",
    "languages": [
      "ar"
    ],
    "dialCode": "20",
    "flag": "ğŸ‡ªğŸ‡¬",
    "isoCode": "EG"
  },
  "EH": {
    "name": "Western Sahara",
    "nativeName": "Ø§Ù„ØµØ­Ø±Ø§Ø¡ Ø§Ù„ØºØ±Ø¨ÙŠØ©",
    "continent": "AF",
    "capital": "El AaiÃºn",
    "currencyCode": "MAD",
    "languages": [
      "es"
    ],
    "dialCode": "212",
    "flag": "ğŸ‡ªğŸ‡­",
    "isoCode": "EH"
  },
  "ER": {
    "name": "Eritrea",
    "nativeName": "áŠ¤áˆ­á‰µáˆ«",
    "continent": "AF",
    "capital": "Asmara",
    "currencyCode": "ERN",
    "languages": [
      "ti",
      "ar",
      "en"
    ],
    "dialCode": "291",
    "flag": "ğŸ‡ªğŸ‡·",
    "isoCode": "ER"
  },
  "ES": {
    "name": "Spain",
    "nativeName": "EspaÃ±a",
    "continent": "EU",
    "capital": "Madrid",
    "currencyCode": "EUR",
    "languages": [
      "es",
      "eu",
      "ca",
      "gl",
      "oc"
    ],
    "dialCode": "34",
    "flag": "ğŸ‡ªğŸ‡¸",
    "isoCode": "ES"
  },
  "ET": {
    "name": "Ethiopia",
    "nativeName": "áŠ¢á‰µá‹®áŒµá‹«",
    "continent": "AF",
    "capital": "Addis Ababa",
    "currencyCode": "ETB",
    "languages": [
      "am"
    ],
    "dialCode": "251",
    "flag": "ğŸ‡ªğŸ‡¹",
    "isoCode": "ET"
  },
  "FI": {
    "name": "Finland",
    "nativeName": "Suomi",
    "continent": "EU",
    "capital": "Helsinki",
    "currencyCode": "EUR",
    "languages": [
      "fi",
      "sv"
    ],
    "dialCode": "358",
    "flag": "ğŸ‡«ğŸ‡®",
    "isoCode": "FI"
  },
  "FJ": {
    "name": "Fiji",
    "nativeName": "Fiji",
    "continent": "OC",
    "capital": "Suva",
    "currencyCode": "FJD",
    "languages": [
      "en",
      "fj",
      "hi",
      "ur"
    ],
    "dialCode": "679",
    "flag": "ğŸ‡«ğŸ‡¯",
    "isoCode": "FJ"
  },
  "FK": {
    "name": "Falkland Islands",
    "nativeName": "Falkland Islands",
    "continent": "SA",
    "capital": "Stanley",
    "currencyCode": "FKP",
    "languages": [
      "en"
    ],
    "dialCode": "500",
    "flag": "ğŸ‡«ğŸ‡°",
    "isoCode": "FK"
  },
  "FM": {
    "name": "Micronesia",
    "nativeName": "Micronesia",
    "continent": "OC",
    "capital": "Palikir",
    "currencyCode": "USD",
    "languages": [
      "en"
    ],
    "dialCode": "691",
    "flag": "ğŸ‡«ğŸ‡²",
    "isoCode": "FM"
  },
  "FO": {
    "name": "Faroe Islands",
    "nativeName": "FÃ¸royar",
    "continent": "EU",
    "capital": "TÃ³rshavn",
    "currencyCode": "DKK",
    "languages": [
      "fo"
    ],
    "dialCode": "298",
    "flag": "ğŸ‡«ğŸ‡´",
    "isoCode": "FO"
  },
  "FR": {
    "name": "France",
    "nativeName": "France",
    "continent": "EU",
    "capital": "Paris",
    "currencyCode": "EUR",
    "languages": [
      "fr"
    ],
    "dialCode": "33",
    "flag": "ğŸ‡«ğŸ‡·",
    "isoCode": "FR"
  },
  "GA": {
    "name": "Gabon",
    "nativeName": "Gabon",
    "continent": "AF",
    "capital": "Libreville",
    "currencyCode": "XAF",
    "languages": [
      "fr"
    ],
    "dialCode": "241",
    "flag": "ğŸ‡¬ğŸ‡¦",
    "isoCode": "GA"
  },
  "GB": {
    "name": "United Kingdom",
    "nativeName": "United Kingdom",
    "continent": "EU",
    "capital": "London",
    "currencyCode": "GBP",
    "languages": [
      "en"
    ],
    "dialCode": "44",
    "flag": "ğŸ‡¬ğŸ‡§",
    "isoCode": "GB"
  },
  "GD": {
    "name": "Grenada",
    "nativeName": "Grenada",
    "continent": "NA",
    "capital": "St. George's",
    "currencyCode": "XCD",
    "languages": [
      "en"
    ],
    "dialCode": "1",
    "flag": "ğŸ‡¬ğŸ‡©",
    "isoCode": "GD"
  },
  "GE": {
    "name": "Georgia",
    "nativeName": "áƒ¡áƒáƒ¥áƒáƒ áƒ—áƒ•áƒ”áƒšáƒ",
    "continent": "AS",
    "capital": "Tbilisi",
    "currencyCode": "GEL",
    "languages": [
      "ka"
    ],
    "dialCode": "995",
    "flag": "ğŸ‡¬ğŸ‡ª",
    "isoCode": "GE"
  },
  "GF": {
    "name": "French Guiana",
    "nativeName": "Guyane franÃ§aise",
    "continent": "SA",
    "capital": "Cayenne",
    "currencyCode": "EUR",
    "languages": [
      "fr"
    ],
    "dialCode": "594",
    "flag": "ğŸ‡¬ğŸ‡«",
    "isoCode": "GF"
  },
  "GG": {
    "name": "Guernsey",
    "nativeName": "Guernsey",
    "continent": "EU",
    "capital": "St. Peter Port",
    "currencyCode": "GBP",
    "languages": [
      "en",
      "fr"
    ],
    "dialCode": "44",
    "flag": "ğŸ‡¬ğŸ‡¬",
    "isoCode": "GG"
  },
  "GH": {
    "name": "Ghana",
    "nativeName": "Ghana",
    "continent": "AF",
    "capital": "Accra",
    "currencyCode": "GHS",
    "languages": [
      "en"
    ],
    "dialCode": "233",
    "flag": "ğŸ‡¬ğŸ‡­",
    "isoCode": "GH"
  },
  "GI": {
    "name": "Gibraltar",
    "nativeName": "Gibraltar",
    "continent": "EU",
    "capital": "Gibraltar",
    "currencyCode": "GIP",
    "languages": [
      "en"
    ],
    "dialCode": "350",
    "flag": "ğŸ‡¬ğŸ‡®",
    "isoCode": "GI"
  },
  "GL": {
    "name": "Greenland",
    "nativeName": "Kalaallit Nunaat",
    "continent": "NA",
    "capital": "Nuuk",
    "currencyCode": "DKK",
    "languages": [
      "kl"
    ],
    "dialCode": "299",
    "flag": "ğŸ‡¬ğŸ‡±",
    "isoCode": "GL"
  },
  "GM": {
    "name": "Gambia",
    "nativeName": "Gambia",
    "continent": "AF",
    "capital": "Banjul",
    "currencyCode": "GMD",
    "languages": [
      "en"
    ],
    "dialCode": "220",
    "flag": "ğŸ‡¬ğŸ‡²",
    "isoCode": "GM"
  },
  "GN": {
    "name": "Guinea",
    "nativeName": "GuinÃ©e",
    "continent": "AF",
    "capital": "Conakry",
    "currencyCode": "GNF",
    "languages": [
      "fr",
      "ff"
    ],
    "dialCode": "224",
    "flag": "ğŸ‡¬ğŸ‡³",
    "isoCode": "GN"
  },
  "GP": {
    "name": "Guadeloupe",
    "nativeName": "Guadeloupe",
    "continent": "NA",
    "capital": "Basse-Terre",
    "currencyCode": "EUR",
    "languages": [
      "fr"
    ],
    "dialCode": "590",
    "flag": "ğŸ‡¬ğŸ‡µ",
    "isoCode": "GP"
  },
  "GQ": {
    "name": "Equatorial Guinea",
    "nativeName": "Guinea Ecuatorial",
    "continent": "AF",
    "capital": "Malabo",
    "currencyCode": "XAF",
    "languages": [
      "es",
      "fr"
    ],
    "dialCode": "240",
    "flag": "ğŸ‡¬ğŸ‡¶",
    "isoCode": "GQ"
  },
  "GR": {
    "name": "Greece",
    "nativeName": "Î•Î»Î»Î¬Î´Î±",
    "continent": "EU",
    "capital": "Athens",
    "currencyCode": "EUR",
    "languages": [
      "el"
    ],
    "dialCode": "30",
    "flag": "ğŸ‡¬ğŸ‡·",
    "isoCode": "GR"
  },
  "GT": {
    "name": "Guatemala",
    "nativeName": "Guatemala",
    "continent": "NA",
    "capital": "Guatemala City",
    "currencyCode": "GTQ",
    "languages": [
      "es"
    ],
    "dialCode": "502",
    "flag": "ğŸ‡¬ğŸ‡¹",
    "isoCode": "GT"
  },
  "GU": {
    "name": "Guam",
    "nativeName": "Guam",
    "continent": "OC",
    "capital": "HagÃ¥tÃ±a",
    "currencyCode": "USD",
    "languages": [
      "en",
      "ch",
      "es"
    ],
    "dialCode": "1",
    "flag": "ğŸ‡¬ğŸ‡º",
    "isoCode": "GU"
  },
  "GW": {
    "name": "Guinea-Bissau",
    "nativeName": "GuinÃ©-Bissau",
    "continent": "AF",
    "capital": "Bissau",
    "currencyCode": "XOF",
    "languages": [
      "pt"
    ],
    "dialCode": "245",
    "flag": "ğŸ‡¬ğŸ‡¼",
    "isoCode": "GW"
  },
  "GY": {
    "name": "Guyana",
    "nativeName": "Guyana",
    "continent": "SA",
    "capital": "Georgetown",
    "currencyCode": "GYD",
    "languages": [
      "en"
    ],
    "dialCode": "592",
    "flag": "ğŸ‡¬ğŸ‡¾",
    "isoCode": "GY"
  },
  "HK": {
    "name": "Hong Kong",
    "nativeName": "é¦™æ¸¯",
    "continent": "AS",
    "capital": "City of Victoria",
    "currencyCode": "HKD",
    "languages": [
      "zh",
      "en"
    ],
    "dialCode": "852",
    "flag": "ğŸ‡­ğŸ‡°",
    "isoCode": "HK"
  },
  "HN": {
    "name": "Honduras",
    "nativeName": "Honduras",
    "continent": "NA",
    "capital": "Tegucigalpa",
    "currencyCode": "HNL",
    "languages": [
      "es"
    ],
    "dialCode": "504",
    "flag": "ğŸ‡­ğŸ‡³",
    "isoCode": "HN"
  },
  "HR": {
    "name": "Croatia",
    "nativeName": "Hrvatska",
    "continent": "EU",
    "capital": "Zagreb",
    "currencyCode": "HRK",
    "languages": [
      "hr"
    ],
    "dialCode": "385",
    "flag": "ğŸ‡­ğŸ‡·",
    "isoCode": "HR"
  },
  "HT": {
    "name": "Haiti",
    "nativeName": "HaÃ¯ti",
    "continent": "NA",
    "capital": "Port-au-Prince",
    "currencyCode": "HTG",
    "languages": [
      "fr",
      "ht"
    ],
    "dialCode": "509",
    "flag": "ğŸ‡­ğŸ‡¹",
    "isoCode": "HT"
  },
  "HU": {
    "name": "Hungary",
    "nativeName": "MagyarorszÃ¡g",
    "continent": "EU",
    "capital": "Budapest",
    "currencyCode": "HUF",
    "languages": [
      "hu"
    ],
    "dialCode": "36",
    "flag": "ğŸ‡­ğŸ‡º",
    "isoCode": "HU"
  },
  "ID": {
    "name": "Indonesia",
    "nativeName": "Indonesia",
    "continent": "AS",
    "capital": "Jakarta",
    "currencyCode": "IDR",
    "languages": [
      "id"
    ],
    "dialCode": "62",
    "flag": "ğŸ‡®ğŸ‡©",
    "isoCode": "ID"
  },
  "IE": {
    "name": "Ireland",
    "nativeName": "Ã‰ire",
    "continent": "EU",
    "capital": "Dublin",
    "currencyCode": "EUR",
    "languages": [
      "ga",
      "en"
    ],
    "dialCode": "353",
    "flag": "ğŸ‡®ğŸ‡ª",
    "isoCode": "IE"
  },
  "IL": {
    "name": "Israel",
    "nativeName": "×™Ö´×©Ö°×‚×¨Ö¸×Öµ×œ",
    "continent": "AS",
    "capital": "Jerusalem",
    "currencyCode": "ILS",
    "languages": [
      "he",
      "ar"
    ],
    "dialCode": "972",
    "flag": "ğŸ‡®ğŸ‡±",
    "isoCode": "IL"
  },
  "IM": {
    "name": "Isle of Man",
    "nativeName": "Isle of Man",
    "continent": "EU",
    "capital": "Douglas",
    "currencyCode": "GBP",
    "languages": [
      "en",
      "gv"
    ],
    "dialCode": "44",
    "flag": "ğŸ‡®ğŸ‡²",
    "isoCode": "IM"
  },
  "IN": {
    "name": "India",
    "nativeName": "à¤­à¤¾à¤°à¤¤",
    "continent": "AS",
    "capital": "New Delhi",
    "currencyCode": "INR",
    "languages": [
      "hi",
      "en"
    ],
    "dialCode": "91",
    "flag": "ğŸ‡®ğŸ‡³",
    "isoCode": "IN"
  },
  "IO": {
    "name": "British Indian Ocean Territory",
    "nativeName": "British Indian Ocean Territory",
    "continent": "AS",
    "capital": "Diego Garcia",
    "currencyCode": "USD",
    "languages": [
      "en"
    ],
    "dialCode": "246",
    "flag": "ğŸ‡®ğŸ‡´",
    "isoCode": "IO"
  },
  "IQ": {
    "name": "Iraq",
    "nativeName": "Ø§Ù„Ø¹Ø±Ø§Ù‚",
    "continent": "AS",
    "capital": "Baghdad",
    "currencyCode": "IQD",
    "languages": [
      "ar",
      "ku"
    ],
    "dialCode": "964",
    "flag": "ğŸ‡®ğŸ‡¶",
    "isoCode": "IQ"
  },
  "IR": {
    "name": "Iran",
    "nativeName": "Ø§ÛŒØ±Ø§Ù†",
    "continent": "AS",
    "capital": "Tehran",
    "currencyCode": "IRR",
    "languages": [
      "fa"
    ],
    "dialCode": "98",
    "flag": "ğŸ‡®ğŸ‡·",
    "isoCode": "IR"
  },
  "IS": {
    "name": "Iceland",
    "nativeName": "Ãsland",
    "continent": "EU",
    "capital": "Reykjavik",
    "currencyCode": "ISK",
    "languages": [
      "is"
    ],
    "dialCode": "354",
    "flag": "ğŸ‡®ğŸ‡¸",
    "isoCode": "IS"
  },
  "IT": {
    "name": "Italy",
    "nativeName": "Italia",
    "continent": "EU",
    "capital": "Rome",
    "currencyCode": "EUR",
    "languages": [
      "it"
    ],
    "dialCode": "39",
    "flag": "ğŸ‡®ğŸ‡¹",
    "isoCode": "IT"
  },
  "JE": {
    "name": "Jersey",
    "nativeName": "Jersey",
    "continent": "EU",
    "capital": "Saint Helier",
    "currencyCode": "GBP",
    "languages": [
      "en",
      "fr"
    ],
    "dialCode": "44",
    "flag": "ğŸ‡¯ğŸ‡ª",
    "isoCode": "JE"
  },
  "JM": {
    "name": "Jamaica",
    "nativeName": "Jamaica",
    "continent": "NA",
    "capital": "Kingston",
    "currencyCode": "JMD",
    "languages": [
      "en"
    ],
    "dialCode": "1",
    "flag": "ğŸ‡¯ğŸ‡²",
    "isoCode": "JM"
  },
  "JO": {
    "name": "Jordan",
    "nativeName": "Ø§Ù„Ø£Ø±Ø¯Ù†",
    "continent": "AS",
    "capital": "Amman",
    "currencyCode": "JOD",
    "languages": [
      "ar"
    ],
    "dialCode": "962",
    "flag": "ğŸ‡¯ğŸ‡´",
    "isoCode": "JO"
  },
  "JP": {
    "name": "Japan",
    "nativeName": "æ—¥æœ¬",
    "continent": "AS",
    "capital": "Tokyo",
    "currencyCode": "JPY",
    "languages": [
      "ja"
    ],
    "dialCode": "81",
    "flag": "ğŸ‡¯ğŸ‡µ",
    "isoCode": "JP"
  },
  "KE": {
    "name": "Kenya",
    "nativeName": "Kenya",
    "continent": "AF",
    "capital": "Nairobi",
    "currencyCode": "KES",
    "languages": [
      "en",
      "sw"
    ],
    "dialCode": "254",
    "flag": "ğŸ‡°ğŸ‡ª",
    "isoCode": "KE"
  },
  "KG": {
    "name": "Kyrgyzstan",
    "nativeName": "ĞšÑ‹Ñ€Ğ³Ñ‹Ğ·ÑÑ‚Ğ°Ğ½",
    "continent": "AS",
    "capital": "Bishkek",
    "currencyCode": "KGS",
    "languages": [
      "ky",
      "ru"
    ],
    "dialCode": "996",
    "flag": "ğŸ‡°ğŸ‡¬",
    "isoCode": "KG"
  },
  "KH": {
    "name": "Cambodia",
    "nativeName": "KÃ¢mpÅ­chÃ©a",
    "continent": "AS",
    "capital": "Phnom Penh",
    "currencyCode": "KHR",
    "languages": [
      "km"
    ],
    "dialCode": "855",
    "flag": "ğŸ‡°ğŸ‡­",
    "isoCode": "KH"
  },
  "KI": {
    "name": "Kiribati",
    "nativeName": "Kiribati",
    "continent": "OC",
    "capital": "South Tarawa",
    "currencyCode": "AUD",
    "languages": [
      "en"
    ],
    "dialCode": "686",
    "flag": "ğŸ‡°ğŸ‡®",
    "isoCode": "KI"
  },
  "KM": {
    "name": "Comoros",
    "nativeName": "Komori",
    "continent": "AF",
    "capital": "Moroni",
    "currencyCode": "KMF",
    "languages": [
      "ar",
      "fr"
    ],
    "dialCode": "269",
    "flag": "ğŸ‡°ğŸ‡²",
    "isoCode": "KM"
  },
  "KN": {
    "name": "Saint Kitts and Nevis",
    "nativeName": "Saint Kitts and Nevis",
    "continent": "NA",
    "capital": "Basseterre",
    "currencyCode": "XCD",
    "languages": [
      "en"
    ],
    "dialCode": "1",
    "flag": "ğŸ‡°ğŸ‡³",
    "isoCode": "KN"
  },
  "KP": {
    "name": "North Korea",
    "nativeName": "ë¶í•œ",
    "continent": "AS",
    "capital": "Pyongyang",
    "currencyCode": "KPW",
    "languages": [
      "ko"
    ],
    "dialCode": "850",
    "flag": "ğŸ‡°ğŸ‡µ",
    "isoCode": "KP"
  },
  "KR": {
    "name": "South Korea",
    "nativeName": "ëŒ€í•œë¯¼êµ­",
    "continent": "AS",
    "capital": "Seoul",
    "currencyCode": "KRW",
    "languages": [
      "ko"
    ],
    "dialCode": "82",
    "flag": "ğŸ‡°ğŸ‡·",
    "isoCode": "KR"
  },
  "KW": {
    "name": "Kuwait",
    "nativeName": "Ø§Ù„ÙƒÙˆÙŠØª",
    "continent": "AS",
    "capital": "Kuwait City",
    "currencyCode": "KWD",
    "languages": [
      "ar"
    ],
    "dialCode": "965",
    "flag": "ğŸ‡°ğŸ‡¼",
    "isoCode": "KW"
  },
  "KY": {
    "name": "Cayman Islands",
    "nativeName": "Cayman Islands",
    "continent": "NA",
    "capital": "George Town",
    "currencyCode": "KYD",
    "languages": [
      "en"
    ],
    "dialCode": "1",
    "flag": "ğŸ‡°ğŸ‡¾",
    "isoCode": "KY"
  },
  "KZ": {
    "name": "Kazakhstan",
    "nativeName": "ÒšĞ°Ğ·Ğ°Ò›ÑÑ‚Ğ°Ğ½",
    "continent": "AS",
    "capital": "Astana",
    "currencyCode": "KZT",
    "languages": [
      "kk",
      "ru"
    ],
    "dialCode": "7",
    "flag": "ğŸ‡°ğŸ‡¿",
    "isoCode": "KZ"
  },
  "LA": {
    "name": "Laos",
    "nativeName": "àºªàº›àº›àº¥àº²àº§",
    "continent": "AS",
    "capital": "Vientiane",
    "currencyCode": "LAK",
    "languages": [
      "lo"
    ],
    "dialCode": "856",
    "flag": "ğŸ‡±ğŸ‡¦",
    "isoCode": "LA"
  },
  "LB": {
    "name": "Lebanon",
    "nativeName": "Ù„Ø¨Ù†Ø§Ù†",
    "continent": "AS",
    "capital": "Beirut",
    "currencyCode": "LBP",
    "languages": [
      "ar",
      "fr"
    ],
    "dialCode": "961",
    "flag": "ğŸ‡±ğŸ‡§",
    "isoCode": "LB"
  },
  "LC": {
    "name": "Saint Lucia",
    "nativeName": "Saint Lucia",
    "continent": "NA",
    "capital": "Castries",
    "currencyCode": "XCD",
    "languages": [
      "en"
    ],
    "dialCode": "1",
    "flag": "ğŸ‡±ğŸ‡¨",
    "isoCode": "LC"
  },
  "LI": {
    "name": "Liechtenstein",
    "nativeName": "Liechtenstein",
    "continent": "EU",
    "capital": "Vaduz",
    "currencyCode": "CHF",
    "languages": [
      "de"
    ],
    "dialCode": "423",
    "flag": "ğŸ‡±ğŸ‡®",
    "isoCode": "LI"
  },
  "LK": {
    "name": "Sri Lanka",
    "nativeName": "Å›rÄ« laá¹ƒkÄva",
    "continent": "AS",
    "capital": "Colombo",
    "currencyCode": "LKR",
    "languages": [
      "si",
      "ta"
    ],
    "dialCode": "94",
    "flag": "ğŸ‡±ğŸ‡°",
    "isoCode": "LK"
  },
  "LR": {
    "name": "Liberia",
    "nativeName": "Liberia",
    "continent": "AF",
    "capital": "Monrovia",
    "currencyCode": "LRD",
    "languages": [
      "en"
    ],
    "dialCode": "231",
    "flag": "ğŸ‡±ğŸ‡·",
    "isoCode": "LR"
  },
  "LS": {
    "name": "Lesotho",
    "nativeName": "Lesotho",
    "continent": "AF",
    "capital": "Maseru",
    "currencyCode": "LSL",
    "languages": [
      "en",
      "st"
    ],
    "dialCode": "266",
    "flag": "ğŸ‡±ğŸ‡¸",
    "isoCode": "LS"
  },
  "LT": {
    "name": "Lithuania",
    "nativeName": "Lietuva",
    "continent": "EU",
    "capital": "Vilnius",
    "currencyCode": "EUR",
    "languages": [
      "lt"
    ],
    "dialCode": "370",
    "flag": "ğŸ‡±ğŸ‡¹",
    "isoCode": "LT"
  },
  "LU": {
    "name": "Luxembourg",
    "nativeName": "Luxembourg",
    "continent": "EU",
    "capital": "Luxembourg",
    "currencyCode": "EUR",
    "languages": [
      "fr",
      "de",
      "lb"
    ],
    "dialCode": "352",
    "flag": "ğŸ‡±ğŸ‡º",
    "isoCode": "LU"
  },
  "LV": {
    "name": "Latvia",
    "nativeName": "Latvija",
    "continent": "EU",
    "capital": "Riga",
    "currencyCode": "EUR",
    "languages": [
      "lv"
    ],
    "dialCode": "371",
    "flag": "ğŸ‡±ğŸ‡»",
    "isoCode": "LV"
  },
  "LY": {
    "name": "Libya",
    "nativeName": "â€Ù„ÙŠØ¨ÙŠØ§",
    "continent": "AF",
    "capital": "Tripoli",
    "currencyCode": "LYD",
    "languages": [
      "ar"
    ],
    "dialCode": "218",
    "flag": "ğŸ‡±ğŸ‡¾",
    "isoCode": "LY"
  },
  "MA": {
    "name": "Morocco",
    "nativeName": "Ø§Ù„Ù…ØºØ±Ø¨",
    "continent": "AF",
    "capital": "Rabat",
    "currencyCode": "MAD",
    "languages": [
      "ar"
    ],
    "dialCode": "212",
    "flag": "ğŸ‡²ğŸ‡¦",
    "isoCode": "MA"
  },
  "MC": {
    "name": "Monaco",
    "nativeName": "Monaco",
    "continent": "EU",
    "capital": "Monaco",
    "currencyCode": "EUR",
    "languages": [
      "fr"
    ],
    "dialCode": "377",
    "flag": "ğŸ‡²ğŸ‡¨",
    "isoCode": "MC"
  },
  "MD": {
    "name": "Moldova",
    "nativeName": "Moldova",
    "continent": "EU",
    "capital": "ChiÈ™inÄƒu",
    "currencyCode": "MDL",
    "languages": [
      "ro"
    ],
    "dialCode": "373",
    "flag": "ğŸ‡²ğŸ‡©",
    "isoCode": "MD"
  },
  "ME": {
    "name": "Montenegro",
    "nativeName": "Ğ¦Ñ€Ğ½Ğ° Ğ“Ğ¾Ñ€Ğ°",
    "continent": "EU",
    "capital": "Podgorica",
    "currencyCode": "EUR",
    "languages": [
      "sr",
      "bs",
      "sq",
      "hr"
    ],
    "dialCode": "382",
    "flag": "ğŸ‡²ğŸ‡ª",
    "isoCode": "ME"
  },
  "MF": {
    "name": "Saint Martin",
    "nativeName": "Saint-Martin",
    "continent": "NA",
    "capital": "Marigot",
    "currencyCode": "EUR",
    "languages": [
      "en",
      "fr",
      "nl"
    ],
    "dialCode": "590",
    "flag": "ğŸ‡²ğŸ‡«",
    "isoCode": "MF"
  },
  "MG": {
    "name": "Madagascar",
    "nativeName": "Madagasikara",
    "continent": "AF",
    "capital": "Antananarivo",
    "currencyCode": "MGA",
    "languages": [
      "fr",
      "mg"
    ],
    "dialCode": "261",
    "flag": "ğŸ‡²ğŸ‡¬",
    "isoCode": "MG"
  },
  "MH": {
    "name": "Marshall Islands",
    "nativeName": "MÌ§ajeÄ¼",
    "continent": "OC",
    "capital": "Majuro",
    "currencyCode": "USD",
    "languages": [
      "en",
      "mh"
    ],
    "dialCode": "692",
    "flag": "ğŸ‡²ğŸ‡­",
    "isoCode": "MH"
  },
  "MK": {
    "name": "North Macedonia",
    "nativeName": "Ğ¡ĞµĞ²ĞµÑ€Ğ½Ğ° ĞœĞ°ĞºĞµĞ´Ğ¾Ğ½Ğ¸Ñ˜Ğ°",
    "continent": "EU",
    "capital": "Skopje",
    "currencyCode": "MKD",
    "languages": [
      "mk"
    ],
    "dialCode": "389",
    "flag": "ğŸ‡²ğŸ‡°",
    "isoCode": "MK"
  },
  "ML": {
    "name": "Mali",
    "nativeName": "Mali",
    "continent": "AF",
    "capital": "Bamako",
    "currencyCode": "XOF",
    "languages": [
      "fr"
    ],
    "dialCode": "223",
    "flag": "ğŸ‡²ğŸ‡±",
    "isoCode": "ML"
  },
  "MM": {
    "name": "Myanmar [Burma]",
    "nativeName": "á€™á€¼á€”á€ºá€™á€¬",
    "continent": "AS",
    "capital": "Naypyidaw",
    "currencyCode": "MMK",
    "languages": [
      "my"
    ],
    "dialCode": "95",
    "flag": "ğŸ‡²ğŸ‡²",
    "isoCode": "MM"
  },
  "MN": {
    "name": "Mongolia",
    "nativeName": "ĞœĞ¾Ğ½Ğ³Ğ¾Ğ» ÑƒĞ»Ñ",
    "continent": "AS",
    "capital": "Ulan Bator",
    "currencyCode": "MNT",
    "languages": [
      "mn"
    ],
    "dialCode": "976",
    "flag": "ğŸ‡²ğŸ‡³",
    "isoCode": "MN"
  },
  "MO": {
    "name": "Macao",
    "nativeName": "æ¾³é–€",
    "continent": "AS",
    "capital": "Macao",
    "currencyCode": "MOP",
    "languages": [
      "zh",
      "pt"
    ],
    "dialCode": "853",
    "flag": "ğŸ‡²ğŸ‡´",
    "isoCode": "MO"
  },
  "MP": {
    "name": "Northern Mariana Islands",
    "nativeName": "Northern Mariana Islands",
    "continent": "OC",
    "capital": "Saipan",
    "currencyCode": "USD",
    "languages": [
      "en",
      "ch"
    ],
    "dialCode": "1",
    "flag": "ğŸ‡²ğŸ‡µ",
    "isoCode": "MP"
  },
  "MQ": {
    "name": "Martinique",
    "nativeName": "Martinique",
    "continent": "NA",
    "capital": "Fort-de-France",
    "currencyCode": "EUR",
    "languages": [
      "fr"
    ],
    "dialCode": "596",
    "flag": "ğŸ‡²ğŸ‡¶",
    "isoCode": "MQ"
  },
  "MR": {
    "name": "Mauritania",
    "nativeName": "Ù…ÙˆØ±ÙŠØªØ§Ù†ÙŠØ§",
    "continent": "AF",
    "capital": "Nouakchott",
    "currencyCode": "MRU",
    "languages": [
      "ar"
    ],
    "dialCode": "222",
    "flag": "ğŸ‡²ğŸ‡·",
    "isoCode": "MR"
  },
  "MS": {
    "name": "Montserrat",
    "nativeName": "Montserrat",
    "continent": "NA",
    "capital": "Plymouth",
    "currencyCode": "XCD",
    "languages": [
      "en"
    ],
    "dialCode": "1",
    "flag": "ğŸ‡²ğŸ‡¸",
    "isoCode": "MS"
  },
  "MT": {
    "name": "Malta",
    "nativeName": "Malta",
    "continent": "EU",
    "capital": "Valletta",
    "currencyCode": "EUR",
    "languages": [
      "mt",
      "en"
    ],
    "dialCode": "356",
    "flag": "ğŸ‡²ğŸ‡¹",
    "isoCode": "MT"
  },
  "MU": {
    "name": "Mauritius",
    "nativeName": "Maurice",
    "continent": "AF",
    "capital": "Port Louis",
    "currencyCode": "MUR",
    "languages": [
      "en"
    ],
    "dialCode": "230",
    "flag": "ğŸ‡²ğŸ‡º",
    "isoCode": "MU"
  },
  "MV": {
    "name": "Maldives",
    "nativeName": "Maldives",
    "continent": "AS",
    "capital": "MalÃ©",
    "currencyCode": "MVR",
    "languages": [
      "dv"
    ],
    "dialCode": "960",
    "flag": "ğŸ‡²ğŸ‡»",
    "isoCode": "MV"
  },
  "MW": {
    "name": "Malawi",
    "nativeName": "Malawi",
    "continent": "AF",
    "capital": "Lilongwe",
    "currencyCode": "MWK",
    "languages": [
      "en",
      "ny"
    ],
    "dialCode": "265",
    "flag": "ğŸ‡²ğŸ‡¼",
    "isoCode": "MW"
  },
  "MX": {
    "name": "Mexico",
    "nativeName": "MÃ©xico",
    "continent": "NA",
    "capital": "Mexico City",
    "currencyCode": "MXN",
    "languages": [
      "es"
    ],
    "dialCode": "52",
    "flag": "ğŸ‡²ğŸ‡½",
    "isoCode": "MX"
  },
  "MY": {
    "name": "Malaysia",
    "nativeName": "Malaysia",
    "continent": "AS",
    "capital": "Kuala Lumpur",
    "currencyCode": "MYR",
    "languages": [
      "ms"
    ],
    "dialCode": "60",
    "flag": "ğŸ‡²ğŸ‡¾",
    "isoCode": "MY"
  },
  "MZ": {
    "name": "Mozambique",
    "nativeName": "MoÃ§ambique",
    "continent": "AF",
    "capital": "Maputo",
    "currencyCode": "MZN",
    "languages": [
      "pt"
    ],
    "dialCode": "258",
    "flag": "ğŸ‡²ğŸ‡¿",
    "isoCode": "MZ"
  },
  "NA": {
    "name": "Namibia",
    "nativeName": "Namibia",
    "continent": "AF",
    "capital": "Windhoek",
    "currencyCode": "NAD",
    "languages": [
      "en",
      "af"
    ],
    "dialCode": "264",
    "flag": "ğŸ‡³ğŸ‡¦",
    "isoCode": "NA"
  },
  "NC": {
    "name": "New Caledonia",
    "nativeName": "Nouvelle-CalÃ©donie",
    "continent": "OC",
    "capital": "NoumÃ©a",
    "currencyCode": "XPF",
    "languages": [
      "fr"
    ],
    "dialCode": "687",
    "flag": "ğŸ‡³ğŸ‡¨",
    "isoCode": "NC"
  },
  "NE": {
    "name": "Niger",
    "nativeName": "Niger",
    "continent": "AF",
    "capital": "Niamey",
    "currencyCode": "XOF",
    "languages": [
      "fr"
    ],
    "dialCode": "227",
    "flag": "ğŸ‡³ğŸ‡ª",
    "isoCode": "NE"
  },
  "NF": {
    "name": "Norfolk Island",
    "nativeName": "Norfolk Island",
    "continent": "OC",
    "capital": "Kingston",
    "currencyCode": "AUD",
    "languages": [
      "en"
    ],
    "dialCode": "672",
    "flag": "ğŸ‡³ğŸ‡«",
    "isoCode": "NF"
  },
  "NG": {
    "name": "Nigeria",
    "nativeName": "Nigeria",
    "continent": "AF",
    "capital": "Abuja",
    "currencyCode": "NGN",
    "languages": [
      "en"
    ],
    "dialCode": "234",
    "flag": "ğŸ‡³ğŸ‡¬",
    "isoCode": "NG"
  },
  "NI": {
    "name": "Nicaragua",
    "nativeName": "Nicaragua",
    "continent": "NA",
    "capital": "Managua",
    "currencyCode": "NIO",
    "languages": [
      "es"
    ],
    "dialCode": "505",
    "flag": "ğŸ‡³ğŸ‡®",
    "isoCode": "NI"
  },
  "NL": {
    "name": "Netherlands",
    "nativeName": "Nederland",
    "continent": "EU",
    "capital": "Amsterdam",
    "currencyCode": "EUR",
    "languages": [
      "nl"
    ],
    "dialCode": "31",
    "flag": "ğŸ‡³ğŸ‡±",
    "isoCode": "NL"
  },
  "NO": {
    "name": "Norway",
    "nativeName": "Norge",
    "continent": "EU",
    "capital": "Oslo",
    "currencyCode": "NOK",
    "languages": [
      "no",
      "nb",
      "nn"
    ],
    "dialCode": "47",
    "flag": "ğŸ‡³ğŸ‡´",
    "isoCode": "NO"
  },
  "NP": {
    "name": "Nepal",
    "nativeName": "à¤¨à¤ªà¤²",
    "continent": "AS",
    "capital": "Kathmandu",
    "currencyCode": "NPR",
    "languages": [
      "ne"
    ],
    "dialCode": "977",
    "flag": "ğŸ‡³ğŸ‡µ",
    "isoCode": "NP"
  },
  "NR": {
    "name": "Nauru",
    "nativeName": "Nauru",
    "continent": "OC",
    "capital": "Yaren",
    "currencyCode": "AUD",
    "languages": [
      "en",
      "na"
    ],
    "dialCode": "674",
    "flag": "ğŸ‡³ğŸ‡·",
    "isoCode": "NR"
  },
  "NU": {
    "name": "Niue",
    "nativeName": "NiuÄ“",
    "continent": "OC",
    "capital": "Alofi",
    "currencyCode": "NZD",
    "languages": [
      "en"
    ],
    "dialCode": "683",
    "flag": "ğŸ‡³ğŸ‡º",
    "isoCode": "NU"
  },
  "NZ": {
    "name": "New Zealand",
    "nativeName": "New Zealand",
    "continent": "OC",
    "capital": "Wellington",
    "currencyCode": "NZD",
    "languages": [
      "en",
      "mi"
    ],
    "dialCode": "64",
    "flag": "ğŸ‡³ğŸ‡¿",
    "isoCode": "NZ"
  },
  "OM": {
    "name": "Oman",
    "nativeName": "Ø¹Ù…Ø§Ù†",
    "continent": "AS",
    "capital": "Muscat",
    "currencyCode": "OMR",
    "languages": [
      "ar"
    ],
    "dialCode": "968",
    "flag": "ğŸ‡´ğŸ‡²",
    "isoCode": "OM"
  },
  "PA": {
    "name": "Panama",
    "nativeName": "PanamÃ¡",
    "continent": "NA",
    "capital": "Panama City",
    "currencyCode": "PAB",
    "languages": [
      "es"
    ],
    "dialCode": "507",
    "flag": "ğŸ‡µğŸ‡¦",
    "isoCode": "PA"
  },
  "PE": {
    "name": "Peru",
    "nativeName": "PerÃº",
    "continent": "SA",
    "capital": "Lima",
    "currencyCode": "PEN",
    "languages": [
      "es"
    ],
    "dialCode": "51",
    "flag": "ğŸ‡µğŸ‡ª",
    "isoCode": "PE"
  },
  "PF": {
    "name": "French Polynesia",
    "nativeName": "PolynÃ©sie franÃ§aise",
    "continent": "OC",
    "capital": "PapeetÄ“",
    "currencyCode": "XPF",
    "languages": [
      "fr"
    ],
    "dialCode": "689",
    "flag": "ğŸ‡µğŸ‡«",
    "isoCode": "PF"
  },
  "PG": {
    "name": "Papua New Guinea",
    "nativeName": "Papua Niugini",
    "continent": "OC",
    "capital": "Port Moresby",
    "currencyCode": "PGK",
    "languages": [
      "en"
    ],
    "dialCode": "675",
    "flag": "ğŸ‡µğŸ‡¬",
    "isoCode": "PG"
  },
  "PH": {
    "name": "Philippines",
    "nativeName": "Pilipinas",
    "continent": "AS",
    "capital": "Manila",
    "currencyCode": "PHP",
    "languages": [
      "en"
    ],
    "dialCode": "63",
    "flag": "ğŸ‡µğŸ‡­",
    "isoCode": "PH"
  },
  "PK": {
    "name": "Pakistan",
    "nativeName": "Pakistan",
    "continent": "AS",
    "capital": "Islamabad",
    "currencyCode": "PKR",
    "languages": [
      "en",
      "ur"
    ],
    "dialCode": "92",
    "flag": "ğŸ‡µğŸ‡°",
    "isoCode": "PK"
  },
  "PL": {
    "name": "Poland",
    "nativeName": "Polska",
    "continent": "EU",
    "capital": "Warsaw",
    "currencyCode": "PLN",
    "languages": [
      "pl"
    ],
    "dialCode": "48",
    "flag": "ğŸ‡µğŸ‡±",
    "isoCode": "PL"
  },
  "PM": {
    "name": "Saint Pierre and Miquelon",
    "nativeName": "Saint-Pierre-et-Miquelon",
    "continent": "NA",
    "capital": "Saint-Pierre",
    "currencyCode": "EUR",
    "languages": [
      "fr"
    ],
    "dialCode": "508",
    "flag": "ğŸ‡µğŸ‡²",
    "isoCode": "PM"
  },
  "PR": {
    "name": "Puerto Rico",
    "nativeName": "Puerto Rico",
    "continent": "NA",
    "capital": "San Juan",
    "currencyCode": "USD",
    "languages": [
      "es",
      "en"
    ],
    "dialCode": "1",
    "flag": "ğŸ‡µğŸ‡·",
    "isoCode": "PR"
  },
  "PS": {
    "name": "Palestine",
    "nativeName": "ÙÙ„Ø³Ø·ÙŠÙ†",
    "continent": "AS",
    "capital": "Ramallah",
    "currencyCode": "ILS",
    "languages": [
      "ar"
    ],
    "dialCode": "970",
    "flag": "ğŸ‡µğŸ‡¸",
    "isoCode": "PS"
  },
  "PT": {
    "name": "Portugal",
    "nativeName": "Portugal",
    "continent": "EU",
    "capital": "Lisbon",
    "currencyCode": "EUR",
    "languages": [
      "pt"
    ],
    "dialCode": "351",
    "flag": "ğŸ‡µğŸ‡¹",
    "isoCode": "PT"
  },
  "PW": {
    "name": "Palau",
    "nativeName": "Palau",
    "continent": "OC",
    "capital": "Ngerulmud",
    "currencyCode": "USD",
    "languages": [
      "en"
    ],
    "dialCode": "680",
    "flag": "ğŸ‡µğŸ‡¼",
    "isoCode": "PW"
  },
  "PY": {
    "name": "Paraguay",
    "nativeName": "Paraguay",
    "continent": "SA",
    "capital": "AsunciÃ³n",
    "currencyCode": "PYG",
    "languages": [
      "es",
      "gn"
    ],
    "dialCode": "595",
    "flag": "ğŸ‡µğŸ‡¾",
    "isoCode": "PY"
  },
  "QA": {
    "name": "Qatar",
    "nativeName": "Ù‚Ø·Ø±",
    "continent": "AS",
    "capital": "Doha",
    "currencyCode": "QAR",
    "languages": [
      "ar"
    ],
    "dialCode": "974",
    "flag": "ğŸ‡¶ğŸ‡¦",
    "isoCode": "QA"
  },
  "RE": {
    "name": "RÃ©union",
    "nativeName": "La RÃ©union",
    "continent": "AF",
    "capital": "Saint-Denis",
    "currencyCode": "EUR",
    "languages": [
      "fr"
    ],
    "dialCode": "262",
    "flag": "ğŸ‡·ğŸ‡ª",
    "isoCode": "RE"
  },
  "RO": {
    "name": "Romania",
    "nativeName": "RomÃ¢nia",
    "continent": "EU",
    "capital": "Bucharest",
    "currencyCode": "RON",
    "languages": [
      "ro"
    ],
    "dialCode": "40",
    "flag": "ğŸ‡·ğŸ‡´",
    "isoCode": "RO"
  },
  "RS": {
    "name": "Serbia",
    "nativeName": "Ğ¡Ñ€Ğ±Ğ¸Ñ˜Ğ°",
    "continent": "EU",
    "capital": "Belgrade",
    "currencyCode": "RSD",
    "languages": [
      "sr"
    ],
    "dialCode": "381",
    "flag": "ğŸ‡·ğŸ‡¸",
    "isoCode": "RS"
  },
  "RU": {
    "name": "Russia",
    "nativeName": "Ğ Ğ¾ÑÑĞ¸Ñ",
    "continent": "EU",
    "capital": "Moscow",
    "currencyCode": "RUB",
    "languages": [
      "ru"
    ],
    "dialCode": "7",
    "flag": "ğŸ‡·ğŸ‡º",
    "isoCode": "RU"
  },
  "RW": {
    "name": "Rwanda",
    "nativeName": "Rwanda",
    "continent": "AF",
    "capital": "Kigali",
    "currencyCode": "RWF",
    "languages": [
      "rw",
      "en",
      "fr"
    ],
    "dialCode": "250",
    "flag": "ğŸ‡·ğŸ‡¼",
    "isoCode": "RW"
  },
  "SA": {
    "name": "Saudi Arabia",
    "nativeName": "Ø§Ù„Ø¹Ø±Ø¨ÙŠØ© Ø§Ù„Ø³Ø¹ÙˆØ¯ÙŠØ©",
    "continent": "AS",
    "capital": "Riyadh",
    "currencyCode": "SAR",
    "languages": [
      "ar"
    ],
    "dialCode": "966",
    "flag": "ğŸ‡¸ğŸ‡¦",
    "isoCode": "SA"
  },
  "SB": {
    "name": "Solomon Islands",
    "nativeName": "Solomon Islands",
    "continent": "OC",
    "capital": "Honiara",
    "currencyCode": "SBD",
    "languages": [
      "en"
    ],
    "dialCode": "677",
    "flag": "ğŸ‡¸ğŸ‡§",
    "isoCode": "SB"
  },
  "SC": {
    "name": "Seychelles",
    "nativeName": "Seychelles",
    "continent": "AF",
    "capital": "Victoria",
    "currencyCode": "SCR",
    "languages": [
      "fr",
      "en"
    ],
    "dialCode": "248",
    "flag": "ğŸ‡¸ğŸ‡¨",
    "isoCode": "SC"
  },
  "SD": {
    "name": "Sudan",
    "nativeName": "Ø§Ù„Ø³ÙˆØ¯Ø§Ù†",
    "continent": "AF",
    "capital": "Khartoum",
    "currencyCode": "SDG",
    "languages": [
      "ar",
      "en"
    ],
    "dialCode": "249",
    "flag": "ğŸ‡¸ğŸ‡©",
    "isoCode": "SD"
  },
  "SE": {
    "name": "Sweden",
    "nativeName": "Sverige",
    "continent": "EU",
    "capital": "Stockholm",
    "currencyCode": "SEK",
    "languages": [
      "sv"
    ],
    "dialCode": "46",
    "flag": "ğŸ‡¸ğŸ‡ª",
    "isoCode": "SE"
  },
  "SG": {
    "name": "Singapore",
    "nativeName": "Singapore",
    "continent": "AS",
    "capital": "Singapore",
    "currencyCode": "SGD",
    "languages": [
      "en",
      "ms",
      "ta",
      "zh"
    ],
    "dialCode": "65",
    "flag": "ğŸ‡¸ğŸ‡¬",
    "isoCode": "SG"
  },
  "SH": {
    "name": "Saint Helena",
    "nativeName": "Saint Helena",
    "continent": "AF",
    "capital": "Jamestown",
    "currencyCode": "SHP",
    "languages": [
      "en"
    ],
    "dialCode": "290",
    "flag": "ğŸ‡¸ğŸ‡­",
    "isoCode": "SH"
  },
  "SI": {
    "name": "Slovenia",
    "nativeName": "Slovenija",
    "continent": "EU",
    "capital": "Ljubljana",
    "currencyCode": "EUR",
    "languages": [
      "sl"
    ],
    "dialCode": "386",
    "flag": "ğŸ‡¸ğŸ‡®",
    "isoCode": "SI"
  },
  "SJ": {
    "name": "Svalbard and Jan Mayen",
    "nativeName": "Svalbard og Jan Mayen",
    "continent": "EU",
    "capital": "Longyearbyen",
    "currencyCode": "NOK",
    "languages": [
      "no"
    ],
    "dialCode": "47",
    "flag": "ğŸ‡¸ğŸ‡¯",
    "isoCode": "SJ"
  },
  "SK": {
    "name": "Slovakia",
    "nativeName": "Slovensko",
    "continent": "EU",
    "capital": "Bratislava",
    "currencyCode": "EUR",
    "languages": [
      "sk"
    ],
    "dialCode": "421",
    "flag": "ğŸ‡¸ğŸ‡°",
    "isoCode": "SK"
  },
  "SL": {
    "name": "Sierra Leone",
    "nativeName": "Sierra Leone",
    "continent": "AF",
    "capital": "Freetown",
    "currencyCode": "SLL",
    "languages": [
      "en"
    ],
    "dialCode": "232",
    "flag": "ğŸ‡¸ğŸ‡±",
    "isoCode": "SL"
  },
  "SM": {
    "name": "San Marino",
    "nativeName": "San Marino",
    "continent": "EU",
    "capital": "City of San Marino",
    "currencyCode": "EUR",
    "languages": [
      "it"
    ],
    "dialCode": "378",
    "flag": "ğŸ‡¸ğŸ‡²",
    "isoCode": "SM"
  },
  "SN": {
    "name": "Senegal",
    "nativeName": "SÃ©nÃ©gal",
    "continent": "AF",
    "capital": "Dakar",
    "currencyCode": "XOF",
    "languages": [
      "fr"
    ],
    "dialCode": "221",
    "flag": "ğŸ‡¸ğŸ‡³",
    "isoCode": "SN"
  },
  "SO": {
    "name": "Somalia",
    "nativeName": "Soomaaliya",
    "continent": "AF",
    "capital": "Mogadishu",
    "currencyCode": "SOS",
    "languages": [
      "so",
      "ar"
    ],
    "dialCode": "252",
    "flag": "ğŸ‡¸ğŸ‡´",
    "isoCode": "SO"
  },
  "SR": {
    "name": "Suriname",
    "nativeName": "Suriname",
    "continent": "SA",
    "capital": "Paramaribo",
    "currencyCode": "SRD",
    "languages": [
      "nl"
    ],
    "dialCode": "597",
    "flag": "ğŸ‡¸ğŸ‡·",
    "isoCode": "SR"
  },
  "SS": {
    "name": "South Sudan",
    "nativeName": "South Sudan",
    "continent": "AF",
    "capital": "Juba",
    "currencyCode": "SSP",
    "languages": [
      "en"
    ],
    "dialCode": "211",
    "flag": "ğŸ‡¸ğŸ‡¸",
    "isoCode": "SS"
  },
  "ST": {
    "name": "SÃ£o TomÃ© and PrÃ­ncipe",
    "nativeName": "SÃ£o TomÃ© e PrÃ­ncipe",
    "continent": "AF",
    "capital": "SÃ£o TomÃ©",
    "currencyCode": "STN",
    "languages": [
      "pt"
    ],
    "dialCode": "239",
    "flag": "ğŸ‡¸ğŸ‡¹",
    "isoCode": "ST"
  },
  "SV": {
    "name": "El Salvador",
    "nativeName": "El Salvador",
    "continent": "NA",
    "capital": "San Salvador",
    "currencyCode": "SVC",
    "languages": [
      "es"
    ],
    "dialCode": "503",
    "flag": "ğŸ‡¸ğŸ‡»",
    "isoCode": "SV"
  },
  "SX": {
    "name": "Sint Maarten",
    "nativeName": "Sint Maarten",
    "continent": "NA",
    "capital": "Philipsburg",
    "currencyCode": "ANG",
    "languages": [
      "nl",
      "en"
    ],
    "dialCode": "1",
    "flag": "ğŸ‡¸ğŸ‡½",
    "isoCode": "SX"
  },
  "SY": {
    "name": "Syria",
    "nativeName": "Ø³ÙˆØ±ÙŠØ§",
    "continent": "AS",
    "capital": "Damascus",
    "currencyCode": "SYP",
    "languages": [
      "ar"
    ],
    "dialCode": "963",
    "flag": "ğŸ‡¸ğŸ‡¾",
    "isoCode": "SY"
  },
  "SZ": {
    "name": "Swaziland",
    "nativeName": "Swaziland",
    "continent": "AF",
    "capital": "Lobamba",
    "currencyCode": "SZL",
    "languages": [
      "en",
      "ss"
    ],
    "dialCode": "268",
    "flag": "ğŸ‡¸ğŸ‡¿",
    "isoCode": "SZ"
  },
  "TA": {
    "name": "Tristan da Cunha",
    "nativeName": "Tristan da Cunha",
    "continent": "AF",
    "capital": "Edinburgh of the Seven Seas",
    "currencyCode": "GBP",
    "languages": [
      "en"
    ],
    "dialCode": "290",
    "flag": "ğŸ‡¹ğŸ‡¦",
    "isoCode": "TA"
  },
  "TC": {
    "name": "Turks and Caicos Islands",
    "nativeName": "Turks and Caicos Islands",
    "continent": "NA",
    "capital": "Cockburn Town",
    "currencyCode": "USD",
    "languages": [
      "en"
    ],
    "dialCode": "1",
    "flag": "ğŸ‡¹ğŸ‡¨",
    "isoCode": "TC"
  },
  "TD": {
    "name": "Chad",
    "nativeName": "Tchad",
    "continent": "AF",
    "capital": "N'Djamena",
    "currencyCode": "XAF",
    "languages": [
      "fr",
      "ar"
    ],
    "dialCode": "235",
    "flag": "ğŸ‡¹ğŸ‡©",
    "isoCode": "TD"
  },
  "TG": {
    "name": "Togo",
    "nativeName": "Togo",
    "continent": "AF",
    "capital": "LomÃ©",
    "currencyCode": "XOF",
    "languages": [
      "fr"
    ],
    "dialCode": "228",
    "flag": "ğŸ‡¹ğŸ‡¬",
    "isoCode": "TG"
  },
  "TH": {
    "name": "Thailand",
    "nativeName": "à¸›à¸£à¸°à¹€à¸—à¸¨à¹„à¸—à¸¢",
    "continent": "AS",
    "capital": "Bangkok",
    "currencyCode": "THB",
    "languages": [
      "th"
    ],
    "dialCode": "66",
    "flag": "ğŸ‡¹ğŸ‡­",
    "isoCode": "TH"
  },
  "TJ": {
    "name": "Tajikistan",
    "nativeName": "Ğ¢Ğ¾Ò·Ğ¸ĞºĞ¸ÑÑ‚Ğ¾Ğ½",
    "continent": "AS",
    "capital": "Dushanbe",
    "currencyCode": "TJS",
    "languages": [
      "tg",
      "ru"
    ],
    "dialCode": "992",
    "flag": "ğŸ‡¹ğŸ‡¯",
    "isoCode": "TJ"
  },
  "TK": {
    "name": "Tokelau",
    "nativeName": "Tokelau",
    "continent": "OC",
    "capital": "Fakaofo",
    "currencyCode": "NZD",
    "languages": [
      "en"
    ],
    "dialCode": "690",
    "flag": "ğŸ‡¹ğŸ‡°",
    "isoCode": "TK"
  },
  "TL": {
    "name": "East Timor",
    "nativeName": "Timor-Leste",
    "continent": "OC",
    "capital": "Dili",
    "currencyCode": "USD",
    "languages": [
      "pt"
    ],
    "dialCode": "670",
    "flag": "ğŸ‡¹ğŸ‡±",
    "isoCode": "TL"
  },
  "TM": {
    "name": "Turkmenistan",
    "nativeName": "TÃ¼rkmenistan",
    "continent": "AS",
    "capital": "Ashgabat",
    "currencyCode": "TMT",
    "languages": [
      "tk",
      "ru"
    ],
    "dialCode": "993",
    "flag": "ğŸ‡¹ğŸ‡²",
    "isoCode": "TM"
  },
  "TN": {
    "name": "Tunisia",
    "nativeName": "ØªÙˆÙ†Ø³",
    "continent": "AF",
    "capital": "Tunis",
    "currencyCode": "TND",
    "languages": [
      "ar"
    ],
    "dialCode": "216",
    "flag": "ğŸ‡¹ğŸ‡³",
    "isoCode": "TN"
  },
  "TO": {
    "name": "Tonga",
    "nativeName": "Tonga",
    "continent": "OC",
    "capital": "Nuku'alofa",
    "currencyCode": "TOP",
    "languages": [
      "en",
      "to"
    ],
    "dialCode": "676",
    "flag": "ğŸ‡¹ğŸ‡´",
    "isoCode": "TO"
  },
  "TR": {
    "name": "Turkey",
    "nativeName": "TÃ¼rkiye",
    "continent": "AS",
    "capital": "Ankara",
    "currencyCode": "TRY",
    "languages": [
      "tr"
    ],
    "dialCode": "90",
    "flag": "ğŸ‡¹ğŸ‡·",
    "isoCode": "TR"
  },
  "TT": {
    "name": "Trinidad and Tobago",
    "nativeName": "Trinidad and Tobago",
    "continent": "NA",
    "capital": "Port of Spain",
    "currencyCode": "TTD",
    "languages": [
      "en"
    ],
    "dialCode": "1",
    "flag": "ğŸ‡¹ğŸ‡¹",
    "isoCode": "TT"
  },
  "TV": {
    "name": "Tuvalu",
    "nativeName": "Tuvalu",
    "continent": "OC",
    "capital": "Funafuti",
    "currencyCode": "AUD",
    "languages": [
      "en"
    ],
    "dialCode": "688",
    "flag": "ğŸ‡¹ğŸ‡»",
    "isoCode": "TV"
  },
  "TW": {
    "name": "Taiwan",
    "nativeName": "è‡ºç£",
    "continent": "AS",
    "capital": "Taipei",
    "currencyCode": "TWD",
    "languages": [
      "zh"
    ],
    "dialCode": "886",
    "flag": "ğŸ‡¹ğŸ‡¼",
    "isoCode": "TW"
  },
  "TZ": {
    "name": "Tanzania",
    "nativeName": "Tanzania",
    "continent": "AF",
    "capital": "Dodoma",
    "currencyCode": "TZS",
    "languages": [
      "sw",
      "en"
    ],
    "dialCode": "255",
    "flag": "ğŸ‡¹ğŸ‡¿",
    "isoCode": "TZ"
  },
  "UA": {
    "name": "Ukraine",
    "nativeName": "Ğ£ĞºÑ€Ğ°Ñ—Ğ½Ğ°",
    "continent": "EU",
    "capital": "Kyiv",
    "currencyCode": "UAH",
    "languages": [
      "uk"
    ],
    "dialCode": "380",
    "flag": "ğŸ‡ºğŸ‡¦",
    "isoCode": "UA"
  },
  "UG": {
    "name": "Uganda",
    "nativeName": "Uganda",
    "continent": "AF",
    "capital": "Kampala",
    "currencyCode": "UGX",
    "languages": [
      "en",
      "sw"
    ],
    "dialCode": "256",
    "flag": "ğŸ‡ºğŸ‡¬",
    "isoCode": "UG"
  },
  "US": {
    "name": "United States",
    "nativeName": "United States",
    "continent": "NA",
    "capital": "Washington D.C.",
    "currencyCode": "USD",
    "languages": [
      "en"
    ],
    "dialCode": "1",
    "flag": "ğŸ‡ºğŸ‡¸",
    "isoCode": "US"
  },
  "UY": {
    "name": "Uruguay",
    "nativeName": "Uruguay",
    "continent": "SA",
    "capital": "Montevideo",
    "currencyCode": "UYI",
    "languages": [
      "es"
    ],
    "dialCode": "598",
    "flag": "ğŸ‡ºğŸ‡¾",
    "isoCode": "UY"
  },
  "UZ": {
    "name": "Uzbekistan",
    "nativeName": "Oâ€˜zbekiston",
    "continent": "AS",
    "capital": "Tashkent",
    "currencyCode": "UZS",
    "languages": [
      "uz",
      "ru"
    ],
    "dialCode": "998",
    "flag": "ğŸ‡ºğŸ‡¿",
    "isoCode": "UZ"
  },
  "VA": {
    "name": "Vatican City",
    "nativeName": "Vaticano",
    "continent": "EU",
    "capital": "Vatican City",
    "currencyCode": "EUR",
    "languages": [
      "it",
      "la"
    ],
    "dialCode": "39",
    "flag": "ğŸ‡»ğŸ‡¦",
    "isoCode": "VA"
  },
  "VC": {
    "name": "Saint Vincent and the Grenadines",
    "nativeName": "Saint Vincent and the Grenadines",
    "continent": "NA",
    "capital": "Kingstown",
    "currencyCode": "XCD",
    "languages": [
      "en"
    ],
    "dialCode": "1",
    "flag": "ğŸ‡»ğŸ‡¨",
    "isoCode": "VC"
  },
  "VE": {
    "name": "Venezuela",
    "nativeName": "Venezuela",
    "continent": "SA",
    "capital": "Caracas",
    "currencyCode": "VES",
    "languages": [
      "es"
    ],
    "dialCode": "58",
    "flag": "ğŸ‡»ğŸ‡ª",
    "isoCode": "VE"
  },
  "VG": {
    "name": "British Virgin Islands",
    "nativeName": "British Virgin Islands",
    "continent": "NA",
    "capital": "Road Town",
    "currencyCode": "USD",
    "languages": [
      "en"
    ],
    "dialCode": "1",
    "flag": "ğŸ‡»ğŸ‡¬",
    "isoCode": "VG"
  },
  "VI": {
    "name": "U.S. Virgin Islands",
    "nativeName": "United States Virgin Islands",
    "continent": "NA",
    "capital": "Charlotte Amalie",
    "currencyCode": "USD",
    "languages": [
      "en"
    ],
    "dialCode": "1",
    "flag": "ğŸ‡»ğŸ‡®",
    "isoCode": "VI"
  },
  "VN": {
    "name": "Vietnam",
    "nativeName": "Viá»‡t Nam",
    "continent": "AS",
    "capital": "Hanoi",
    "currencyCode": "VND",
    "languages": [
      "vi"
    ],
    "dialCode": "84",
    "flag": "ğŸ‡»ğŸ‡³",
    "isoCode": "VN"
  },
  "VU": {
    "name": "Vanuatu",
    "nativeName": "Vanuatu",
    "continent": "OC",
    "capital": "Port Vila",
    "currencyCode": "VUV",
    "languages": [
      "bi",
      "en",
      "fr"
    ],
    "dialCode": "678",
    "flag": "ğŸ‡»ğŸ‡º",
    "isoCode": "VU"
  },
  "WF": {
    "name": "Wallis and Futuna",
    "nativeName": "Wallis et Futuna",
    "continent": "OC",
    "capital": "Mata-Utu",
    "currencyCode": "XPF",
    "languages": [
      "fr"
    ],
    "dialCode": "681",
    "flag": "ğŸ‡¼ğŸ‡«",
    "isoCode": "WF"
  },
  "WS": {
    "name": "Samoa",
    "nativeName": "Samoa",
    "continent": "OC",
    "capital": "Apia",
    "currencyCode": "WST",
    "languages": [
      "sm",
      "en"
    ],
    "dialCode": "685",
    "flag": "ğŸ‡¼ğŸ‡¸",
    "isoCode": "WS"
  },
  "XK": {
    "name": "Kosovo",
    "nativeName": "Republika e KosovÃ«s",
    "continent": "EU",
    "capital": "Pristina",
    "currencyCode": "EUR",
    "languages": [
      "sq",
      "sr"
    ],
    "dialCode": "383",
    "flag": "ğŸ‡½ğŸ‡°",
    "isoCode": "XK"
  },
  "YE": {
    "name": "Yemen",
    "nativeName": "Ø§Ù„ÙŠÙÙ…ÙÙ†",
    "continent": "AS",
    "capital": "Sana'a",
    "currencyCode": "YER",
    "languages": [
      "ar"
    ],
    "dialCode": "967",
    "flag": "ğŸ‡¾ğŸ‡ª",
    "isoCode": "YE"
  },
  "YT": {
    "name": "Mayotte",
    "nativeName": "Mayotte",
    "continent": "AF",
    "capital": "Mamoudzou",
    "currencyCode": "EUR",
    "languages": [
      "fr"
    ],
    "dialCode": "262",
    "flag": "ğŸ‡¾ğŸ‡¹",
    "isoCode": "YT"
  },
  "ZA": {
    "name": "South Africa",
    "nativeName": "South Africa",
    "continent": "AF",
    "capital": "Pretoria",
    "currencyCode": "ZAR",
    "languages": [
      "af",
      "en",
      "nr",
      "st",
      "ss",
      "tn",
      "ts",
      "ve",
      "xh",
      "zu"
    ],
    "dialCode": "27",
    "flag": "ğŸ‡¿ğŸ‡¦",
    "isoCode": "ZA"
  },
  "ZM": {
    "name": "Zambia",
    "nativeName": "Zambia",
    "continent": "AF",
    "capital": "Lusaka",
    "currencyCode": "ZMW",
    "languages": [
      "en"
    ],
    "dialCode": "260",
    "flag": "ğŸ‡¿ğŸ‡²",
    "isoCode": "ZM"
  },
  "ZW": {
    "name": "Zimbabwe",
    "nativeName": "Zimbabwe",
    "continent": "AF",
    "capital": "Harare",
    "currencyCode": "USD",
    "languages": [
      "en",
      "sn",
      "nd"
    ],
    "dialCode": "263",
    "flag": "ğŸ‡¿ğŸ‡¼",
    "isoCode": "ZW"
  }
}