{
  "AD": {
    "name": "Andorra",
    "nativeName": "Andorra",
    "continent": "EU",
    "capital": "Andorra la Vella",
    "currencyCode": "EUR",
    "languages": [
      "ca"
    ]
  },
  "AE": {
    "name": "United Arab Emirates",
    "nativeName": "دولة الإمارات العربية المتحدة",
    "continent": "AS",
    "capital": "Abu Dhabi",
    "currencyCode": "AED",
    "languages": [
      "ar"
    ]
  },
  "AF": {
    "name": "Afghanistan",
    "nativeName": "افغانستان",
    "continent": "AS",
    "capital": "Kabul",
    "currencyCode": "AFN",
    "languages": [
      "ps",
      "uz",
      "tk"
    ]
  },
  "AG": {
    "name": "Antigua and Barbuda",
    "nativeName": "Antigua and Barbuda",
    "continent": "NA",
    "capital": "Saint John's",
    "currencyCode": "XCD",
    "languages": [
      "en"
    ]
  },
  "AI": {
    "name": "Anguilla",
    "nativeName": "Anguilla",
    "continent": "NA",
    "capital": "The Valley",
    "currencyCode": "XCD",
    "languages": [
      "en"
    ]
  },
  "AL": {
    "name": "Albania",
    "nativeName": "Shqipëria",
    "continent": "EU",
    "capital": "Tirana",
    "currencyCode": "ALL",
    "languages": [
      "sq"
    ]
  },
  "AM": {
    "name": "Armenia",
    "nativeName": "Հայաստան",
    "continent": "AS",
    "capital": "Yerevan",
    "currencyCode": "AMD",
    "languages": [
      "hy",
      "ru"
    ]
  },
  "AO": {
    "name": "Angola",
    "nativeName": "Angola",
    "continent": "AF",
    "capital": "Luanda",
    "currencyCode": "AOA",
    "languages": [
      "pt"
    ]
  },
  "AQ": {
    "name": "Antarctica",
    "nativeName": "Antarctica",
    "continent": "AN",
    "capital": "",
    "currencyCode": "",
    "languages": []
  },
  "AR": {
    "name": "Argentina",
    "nativeName": "Argentina",
    "continent": "SA",
    "capital": "Buenos Aires",
    "currencyCode": "ARS",
    "languages": [
      "es",
      "gn"
    ]
  },
  "AS": {
    "name": "American Samoa",
    "nativeName": "American Samoa",
    "continent": "OC",
    "capital": "Pago Pago",
    "currencyCode": "USD",
    "languages": [
      "en",
      "sm"
    ]
  },
  "AT": {
    "name": "Austria",
    "nativeName": "Österreich",
    "continent": "EU",
    "capital": "Vienna",
    "currencyCode": "EUR",
    "languages": [
      "de"
    ]
  },
  "AU": {
    "name": "Australia",
    "nativeName": "Australia",
    "continent": "OC",
    "capital": "Canberra",
    "currencyCode": "AUD",
    "languages": [
      "en"
    ]
  },
  "AW": {
    "name": "Aruba",
    "nativeName": "Aruba",
    "continent": "NA",
    "capital": "Oranjestad",
    "currencyCode": "AWG",
    "languages": [
      "nl",
      "pa"
    ]
  },
  "AX": {
    "name": "Åland",
    "nativeName": "Åland",
    "continent": "EU",
    "capital": "Mariehamn",
    "currencyCode": "EUR",
    "languages": [
      "sv"
    ]
  },
  "AZ": {
    "name": "Azerbaijan",
    "nativeName": "Azərbaycan",
    "continent": "AS",
    "capital": "Baku",
    "currencyCode": "AZN",
    "languages": [
      "az"
    ]
  },
  "BA": {
    "name": "Bosnia and Herzegovina",
    "nativeName": "Bosna i Hercegovina",
    "continent": "EU",
    "capital": "Sarajevo",
    "currencyCode": "BAM",
    "languages": [
      "bs",
      "hr",
      "sr"
    ]
  },
  "BB": {
    "name": "Barbados",
    "nativeName": "Barbados",
    "continent": "NA",
    "capital": "Bridgetown",
    "currencyCode": "BBD",
    "languages": [
      "en"
    ]
  },
  "BD": {
    "name": "Bangladesh",
    "nativeName": "Bangladesh",
    "continent": "AS",
    "capital": "Dhaka",
    "currencyCode": "BDT",
    "languages": [
      "bn"
    ]
  },
  "BE": {
    "name": "Belgium",
    "nativeName": "België",
    "continent": "EU",
    "capital": "Brussels",
    "currencyCode": "EUR",
    "languages": [
      "nl",
      "fr",
      "de"
    ]
  },
  "BF": {
    "name": "Burkina Faso",
    "nativeName": "Burkina Faso",
    "continent": "AF",
    "capital": "Ouagadougou",
    "currencyCode": "XOF",
    "languages": [
      "fr",
      "ff"
    ]
  },
  "BG": {
    "name": "Bulgaria",
    "nativeName": "България",
    "continent": "EU",
    "capital": "Sofia",
    "currencyCode": "BGN",
    "languages": [
      "bg"
    ]
  },
  "BH": {
    "name": "Bahrain",
    "nativeName": "‏البحرين",
    "continent": "AS",
    "capital": "Manama",
    "currencyCode": "BHD",
    "languages": [
      "ar"
    ]
  },
  "BI": {
    "name": "Burundi",
    "nativeName": "Burundi",
    "continent": "AF",
    "capital": "Bujumbura",
    "currencyCode": "BIF",
    "languages": [
      "fr",
      "rn"
    ]
  },
  "BJ": {
    "name": "Benin",
    "nativeName": "Bénin",
    "continent": "AF",
    "capital": "Porto-Novo",
    "currencyCode": "XOF",
    "languages": [
      "fr"
    ]
  },
  "BL": {
    "name": "Saint Barthélemy",
    "nativeName": "Saint-Barthélemy",
    "continent": "NA",
    "capital": "Gustavia",
    "currencyCode": "EUR",
    "languages": [
      "fr"
    ]
  },
  "BM": {
    "name": "Bermuda",
    "nativeName": "Bermuda",
    "continent": "NA",
    "capital": "Hamilton",
    "currencyCode": "BMD",
    "languages": [
      "en"
    ]
  },
  "BN": {
    "name": "Brunei",
    "nativeName": "Negara Brunei Darussalam",
    "continent": "AS",
    "capital": "Bandar Seri Begawan",
    "currencyCode": "BND",
    "languages": [
      "ms"
    ]
  },
  "BO": {
    "name": "Bolivia",
    "nativeName": "Bolivia",
    "continent": "SA",
    "capital": "Sucre",
    "currencyCode": "BOB",
    "languages": [
      "es",
      "ay",
      "qu"
    ]
  },
  "BQ": {
    "name": "Bonaire",
    "nativeName": "Bonaire",
    "continent": "NA",
    "capital": "Kralendijk",
    "currencyCode": "USD",
    "languages": [
      "nl"
    ]
  },
  "BR": {
    "name": "Brazil",
    "nativeName": "Brasil",
    "continent": "SA",
    "capital": "Brasília",
    "currencyCode": "BRL",
    "languages": [
      "pt"
    ]
  },
  "BS": {
    "name": "Bahamas",
    "nativeName": "Bahamas",
    "continent": "NA",
    "capital": "Nassau",
    "currencyCode": "BSD",
    "languages": [
      "en"
    ]
  },
  "BT": {
    "name": "Bhutan",
    "nativeName": "ʼbrug-yul",
    "continent": "AS",
    "capital": "Thimphu",
    "currencyCode": "BTN",
    "languages": [
      "dz"
    ]
  },
  "BV": {
    "name": "Bouvet Island",
    "nativeName": "Bouvetøya",
    "continent": "AN",
    "capital": "",
    "currencyCode": "NOK",
    "languages": [
      "no",
      "nb",
      "nn"
    ]
  },
  "BW": {
    "name": "Botswana",
    "nativeName": "Botswana",
    "continent": "AF",
    "capital": "Gaborone",
    "currencyCode": "BWP",
    "languages": [
      "en",
      "tn"
    ]
  },
  "BY": {
    "name": "Belarus",
    "nativeName": "Белару́сь",
    "continent": "EU",
    "capital": "Minsk",
    "currencyCode": "BYN",
    "languages": [
      "be",
      "ru"
    ]
  },
  "BZ": {
    "name": "Belize",
    "nativeName": "Belize",
    "continent": "NA",
    "capital": "Belmopan",
    "currencyCode": "BZD",
    "languages": [
      "en",
      "es"
    ]
  },
  "CA": {
    "name": "Canada",
    "nativeName": "Canada",
    "continent": "NA",
    "capital": "Ottawa",
    "currencyCode": "CAD",
    "languages": [
      "en",
      "fr"
    ]
  },
  "CC": {
    "name": "Cocos [Keeling] Islands",
    "nativeName": "Cocos (Keeling) Islands",
    "continent": "AS",
    "capital": "West Island",
    "currencyCode": "AUD",
    "languages": [
      "en"
    ]
  },
  "CD": {
    "name": "Democratic Republic of the Congo",
    "nativeName": "République démocratique du Congo",
    "continent": "AF",
    "capital": "Kinshasa",
    "currencyCode": "CDF",
    "languages": [
      "fr",
      "ln",
      "kg",
      "sw",
      "lu"
    ]
  },
  "CF": {
    "name": "Central African Republic",
    "nativeName": "Ködörösêse tî Bêafrîka",
    "continent": "AF",
    "capital": "Bangui",
    "currencyCode": "XAF",
    "languages": [
      "fr",
      "sg"
    ]
  },
  "CG": {
    "name": "Republic of the Congo",
    "nativeName": "République du Congo",
    "continent": "AF",
    "capital": "Brazzaville",
    "currencyCode": "XAF",
    "languages": [
      "fr",
      "ln"
    ]
  },
  "CH": {
    "name": "Switzerland",
    "nativeName": "Schweiz",
    "continent": "EU",
    "capital": "Bern",
    "currencyCode": "CHE",
    "languages": [
      "de",
      "fr",
      "it"
    ]
  },
  "CI": {
    "name": "Ivory Coast",
    "nativeName": "Côte d'Ivoire",
    "continent": "AF",
    "capital": "Yamoussoukro",
    "currencyCode": "XOF",
    "languages": [
      "fr"
    ]
  },
  "CK": {
    "name": "Cook Islands",
    "nativeName": "Cook Islands",
    "continent": "OC",
    "capital": "Avarua",
    "currencyCode": "NZD",
    "languages": [
      "en"
    ]
  },
  "CL": {
    "name": "Chile",
    "nativeName": "Chile",
    "continent": "SA",
    "capital": "Santiago",
    "currencyCode": "CLF",
    "languages": [
      "es"
    ]
  },
  "CM": {
    "name": "Cameroon",
    "nativeName": "Cameroon",
    "continent": "AF",
    "capital": "Yaoundé",
    "currencyCode": "XAF",
    "languages": [
      "en",
      "fr"
    ]
  },
  "CN": {
    "name": "China",
    "nativeName": "中国",
    "continent": "AS",
    "capital": "Beijing",
    "currencyCode": "CNY",
    "languages": [
      "zh"
    ]
  },
  "CO": {
    "name": "Colombia",
    "nativeName": "Colombia",
    "continent": "SA",
    "capital": "Bogotá",
    "currencyCode": "COP",
    "languages": [
      "es"
    ]
  },
  "CR": {
    "name": "Costa Rica",
    "nativeName": "Costa Rica",
    "continent": "NA",
    "capital": "San José",
    "currencyCode": "CRC",
    "languages": [
      "es"
    ]
  },
  "CU": {
    "name": "Cuba",
    "nativeName": "Cuba",
    "continent": "NA",
    "capital": "Havana",
    "currencyCode": "CUC",
    "languages": [
      "es"
    ]
  },
  "CV": {
    "name": "Cape Verde",
    "nativeName": "Cabo Verde",
    "continent": "AF",
    "capital": "Praia",
    "currencyCode": "CVE",
    "languages": [
      "pt"
    ]
  },
  "CW": {
    "name": "Curacao",
    "nativeName": "Curaçao",
    "continent": "NA",
    "capital": "Willemstad",
    "currencyCode": "ANG",
    "languages": [
      "nl",
      "pa",
      "en"
    ]
  },
  "CX": {
    "name": "Christmas Island",
    "nativeName": "Christmas Island",
    "continent": "AS",
    "capital": "Flying Fish Cove",
    "currencyCode": "AUD",
    "languages": [
      "en"
    ]
  },
  "CY": {
    "name": "Cyprus",
    "nativeName": "Κύπρος",
    "continent": "EU",
    "capital": "Nicosia",
    "currencyCode": "EUR",
    "languages": [
      "el",
      "tr",
      "hy"
    ]
  },
  "CZ": {
    "name": "Czech Republic",
    "nativeName": "Česká republika",
    "continent": "EU",
    "capital": "Prague",
    "currencyCode": "CZK",
    "languages": [
      "cs",
      "sk"
    ]
  },
  "DE": {
    "name": "Germany",
    "nativeName": "Deutschland",
    "continent": "EU",
    "capital": "Berlin",
    "currencyCode": "EUR",
    "languages": [
      "de"
    ]
  },
  "DJ": {
    "name": "Djibouti",
    "nativeName": "Djibouti",
    "continent": "AF",
    "capital": "Djibouti",
    "currencyCode": "DJF",
    "languages": [
      "fr",
      "ar"
    ]
  },
  "DK": {
    "name": "Denmark",
    "nativeName": "Danmark",
    "continent": "EU",
    "capital": "Copenhagen",
    "currencyCode": "DKK",
    "languages": [
      "da"
    ]
  },
  "DM": {
    "name": "Dominica",
    "nativeName": "Dominica",
    "continent": "NA",
    "capital": "Roseau",
    "currencyCode": "XCD",
    "languages": [
      "en"
    ]
  },
  "DO": {
    "name": "Dominican Republic",
    "nativeName": "República Dominicana",
    "continent": "NA",
    "capital": "Santo Domingo",
    "currencyCode": "DOP",
    "languages": [
      "es"
    ]
  },
  "DZ": {
    "name": "Algeria",
    "nativeName": "الجزائر",
    "continent": "AF",
    "capital": "Algiers",
    "currencyCode": "DZD",
    "languages": [
      "ar"
    ]
  },
  "EC": {
    "name": "Ecuador",
    "nativeName": "Ecuador",
    "continent": "SA",
    "capital": "Quito",
    "currencyCode": "USD",
    "languages": [
      "es"
    ]
  },
  "EE": {
    "name": "Estonia",
    "nativeName": "Eesti",
    "continent": "EU",
    "capital": "Tallinn",
    "currencyCode": "EUR",
    "languages": [
      "et"
    ]
  },
  "EG": {
    "name": "Egypt",
    "nativeName": "مصر‎",
    "continent": "AF",
    "capital": "Cairo",
    "currencyCode": "EGP",
    "languages": [
      "ar"
    ]
  },
  "EH": {
    "name": "Western Sahara",
    "nativeName": "الصحراء الغربية",
    "continent": "AF",
    "capital": "El Aaiún",
    "currencyCode": "MAD",
    "languages": [
      "es"
    ]
  },
  "ER": {
    "name": "Eritrea",
    "nativeName": "ኤርትራ",
    "continent": "AF",
    "capital": "Asmara",
    "currencyCode": "ERN",
    "languages": [
      "ti",
      "ar",
      "en"
    ]
  },
  "ES": {
    "name": "Spain",
    "nativeName": "España",
    "continent": "EU",
    "capital": "Madrid",
    "currencyCode": "EUR",
    "languages": [
      "es",
      "eu",
      "ca",
      "gl",
      "oc"
    ]
  },
  "ET": {
    "name": "Ethiopia",
    "nativeName": "ኢትዮጵያ",
    "continent": "AF",
    "capital": "Addis Ababa",
    "currencyCode": "ETB",
    "languages": [
      "am"
    ]
  },
  "FI": {
    "name": "Finland",
    "nativeName": "Suomi",
    "continent": "EU",
    "capital": "Helsinki",
    "currencyCode": "EUR",
    "languages": [
      "fi",
      "sv"
    ]
  },
  "FJ": {
    "name": "Fiji",
    "nativeName": "Fiji",
    "continent": "OC",
    "capital": "Suva",
    "currencyCode": "FJD",
    "languages": [
      "en",
      "fj",
      "hi",
      "ur"
    ]
  },
  "FK": {
    "name": "Falkland Islands",
    "nativeName": "Falkland Islands",
    "continent": "SA",
    "capital": "Stanley",
    "currencyCode": "FKP",
    "languages": [
      "en"
    ]
  },
  "FM": {
    "name": "Micronesia",
    "nativeName": "Micronesia",
    "continent": "OC",
    "capital": "Palikir",
    "currencyCode": "USD",
    "languages": [
      "en"
    ]
  },
  "FO": {
    "name": "Faroe Islands",
    "nativeName": "Føroyar",
    "continent": "EU",
    "capital": "Tórshavn",
    "currencyCode": "DKK",
    "languages": [
      "fo"
    ]
  },
  "FR": {
    "name": "France",
    "nativeName": "France",
    "continent": "EU",
    "capital": "Paris",
    "currencyCode": "EUR",
    "languages": [
      "fr"
    ]
  },
  "GA": {
    "name": "Gabon",
    "nativeName": "Gabon",
    "continent": "AF",
    "capital": "Libreville",
    "currencyCode": "XAF",
    "languages": [
      "fr"
    ]
  },
  "GB": {
    "name": "United Kingdom",
    "nativeName": "United Kingdom",
    "continent": "EU",
    "capital": "London",
    "currencyCode": "GBP",
    "languages": [
      "en"
    ]
  },
  "GD": {
    "name": "Grenada",
    "nativeName": "Grenada",
    "continent": "NA",
    "capital": "St. George's",
    "currencyCode": "XCD",
    "languages": [
      "en"
    ]
  },
  "GE": {
    "name": "Georgia",
    "nativeName": "საქართველო",
    "continent": "AS",
    "capital": "Tbilisi",
    "currencyCode": "GEL",
    "languages": [
      "ka"
    ]
  },
  "GF": {
    "name": "French Guiana",
    "nativeName": "Guyane française",
    "continent": "SA",
    "capital": "Cayenne",
    "currencyCode": "EUR",
    "languages": [
      "fr"
    ]
  },
  "GG": {
    "name": "Guernsey",
    "nativeName": "Guernsey",
    "continent": "EU",
    "capital": "St. Peter Port",
    "currencyCode": "GBP",
    "languages": [
      "en",
      "fr"
    ]
  },
  "GH": {
    "name": "Ghana",
    "nativeName": "Ghana",
    "continent": "AF",
    "capital": "Accra",
    "currencyCode": "GHS",
    "languages": [
      "en"
    ]
  },
  "GI": {
    "name": "Gibraltar",
    "nativeName": "Gibraltar",
    "continent": "EU",
    "capital": "Gibraltar",
    "currencyCode": "GIP",
    "languages": [
      "en"
    ]
  },
  "GL": {
    "name": "Greenland",
    "nativeName": "Kalaallit Nunaat",
    "continent": "NA",
    "capital": "Nuuk",
    "currencyCode": "DKK",
    "languages": [
      "kl"
    ]
  },
  "GM": {
    "name": "Gambia",
    "nativeName": "Gambia",
    "continent": "AF",
    "capital": "Banjul",
    "currencyCode": "GMD",
    "languages": [
      "en"
    ]
  },
  "GN": {
    "name": "Guinea",
    "nativeName": "Guinée",
    "continent": "AF",
    "capital": "Conakry",
    "currencyCode": "GNF",
    "languages": [
      "fr",
      "ff"
    ]
  },
  "GP": {
    "name": "Guadeloupe",
    "nativeName": "Guadeloupe",
    "continent": "NA",
    "capital": "Basse-Terre",
    "currencyCode": "EUR",
    "languages": [
      "fr"
    ]
  },
  "GQ": {
    "name": "Equatorial Guinea",
    "nativeName": "Guinea Ecuatorial",
    "continent": "AF",
    "capital": "Malabo",
    "currencyCode": "XAF",
    "languages": [
      "es",
      "fr"
    ]
  },
  "GR": {
    "name": "Greece",
    "nativeName": "Ελλάδα",
    "continent": "EU",
    "capital": "Athens",
    "currencyCode": "EUR",
    "languages": [
      "el"
    ]
  },
  "GS": {
    "name": "South Georgia and the South Sandwich Islands",
    "nativeName": "South Georgia",
    "continent": "AN",
    "capital": "King Edward Point",
    "currencyCode": "GBP",
    "languages": [
      "en"
    ]
  },
  "GT": {
    "name": "Guatemala",
    "nativeName": "Guatemala",
    "continent": "NA",
    "capital": "Guatemala City",
    "currencyCode": "GTQ",
    "languages": [
      "es"
    ]
  },
  "GU": {
    "name": "Guam",
    "nativeName": "Guam",
    "continent": "OC",
    "capital": "Hagåtña",
    "currencyCode": "USD",
    "languages": [
      "en",
      "ch",
      "es"
    ]
  },
  "GW": {
    "name": "Guinea-Bissau",
    "nativeName": "Guiné-Bissau",
    "continent": "AF",
    "capital": "Bissau",
    "currencyCode": "XOF",
    "languages": [
      "pt"
    ]
  },
  "GY": {
    "name": "Guyana",
    "nativeName": "Guyana",
    "continent": "SA",
    "capital": "Georgetown",
    "currencyCode": "GYD",
    "languages": [
      "en"
    ]
  },
  "HK": {
    "name": "Hong Kong",
    "nativeName": "香港",
    "continent": "AS",
    "capital": "City of Victoria",
    "currencyCode": "HKD",
    "languages": [
      "zh",
      "en"
    ]
  },
  "HM": {
    "name": "Heard Island and McDonald Islands",
    "nativeName": "Heard Island and McDonald Islands",
    "continent": "AN",
    "capital": "",
    "currencyCode": "AUD",
    "languages": [
      "en"
    ]
  },
  "HN": {
    "name": "Honduras",
    "nativeName": "Honduras",
    "continent": "NA",
    "capital": "Tegucigalpa",
    "currencyCode": "HNL",
    "languages": [
      "es"
    ]
  },
  "HR": {
    "name": "Croatia",
    "nativeName": "Hrvatska",
    "continent": "EU",
    "capital": "Zagreb",
    "currencyCode": "HRK",
    "languages": [
      "hr"
    ]
  },
  "HT": {
    "name": "Haiti",
    "nativeName": "Haïti",
    "continent": "NA",
    "capital": "Port-au-Prince",
    "currencyCode": "HTG",
    "languages": [
      "fr",
      "ht"
    ]
  },
  "HU": {
    "name": "Hungary",
    "nativeName": "Magyarország",
    "continent": "EU",
    "capital": "Budapest",
    "currencyCode": "HUF",
    "languages": [
      "hu"
    ]
  },
  "ID": {
    "name": "Indonesia",
    "nativeName": "Indonesia",
    "continent": "AS",
    "capital": "Jakarta",
    "currencyCode": "IDR",
    "languages": [
      "id"
    ]
  },
  "IE": {
    "name": "Ireland",
    "nativeName": "Éire",
    "continent": "EU",
    "capital": "Dublin",
    "currencyCode": "EUR",
    "languages": [
      "ga",
      "en"
    ]
  },
  "IL": {
    "name": "Israel",
    "nativeName": "יִשְׂרָאֵל",
    "continent": "AS",
    "capital": "Jerusalem",
    "currencyCode": "ILS",
    "languages": [
      "he",
      "ar"
    ]
  },
  "IM": {
    "name": "Isle of Man",
    "nativeName": "Isle of Man",
    "continent": "EU",
    "capital": "Douglas",
    "currencyCode": "GBP",
    "languages": [
      "en",
      "gv"
    ]
  },
  "IN": {
    "name": "India",
    "nativeName": "भारत",
    "continent": "AS",
    "capital": "New Delhi",
    "currencyCode": "INR",
    "languages": [
      "hi",
      "en"
    ]
  },
  "IO": {
    "name": "British Indian Ocean Territory",
    "nativeName": "British Indian Ocean Territory",
    "continent": "AS",
    "capital": "Diego Garcia",
    "currencyCode": "USD",
    "languages": [
      "en"
    ]
  },
  "IQ": {
    "name": "Iraq",
    "nativeName": "العراق",
    "continent": "AS",
    "capital": "Baghdad",
    "currencyCode": "IQD",
    "languages": [
      "ar",
      "ku"
    ]
  },
  "IR": {
    "name": "Iran",
    "nativeName": "ایران",
    "continent": "AS",
    "capital": "Tehran",
    "currencyCode": "IRR",
    "languages": [
      "fa"
    ]
  },
  "IS": {
    "name": "Iceland",
    "nativeName": "Ísland",
    "continent": "EU",
    "capital": "Reykjavik",
    "currencyCode": "ISK",
    "languages": [
      "is"
    ]
  },
  "IT": {
    "name": "Italy",
    "nativeName": "Italia",
    "continent": "EU",
    "capital": "Rome",
    "currencyCode": "EUR",
    "languages": [
      "it"
    ]
  },
  "JE": {
    "name": "Jersey",
    "nativeName": "Jersey",
    "continent": "EU",
    "capital": "Saint Helier",
    "currencyCode": "GBP",
    "languages": [
      "en",
      "fr"
    ]
  },
  "JM": {
    "name": "Jamaica",
    "nativeName": "Jamaica",
    "continent": "NA",
    "capital": "Kingston",
    "currencyCode": "JMD",
    "languages": [
      "en"
    ]
  },
  "JO": {
    "name": "Jordan",
    "nativeName": "الأردن",
    "continent": "AS",
    "capital": "Amman",
    "currencyCode": "JOD",
    "languages": [
      "ar"
    ]
  },
  "JP": {
    "name": "Japan",
    "nativeName": "日本",
    "continent": "AS",
    "capital": "Tokyo",
    "currencyCode": "JPY",
    "languages": [
      "ja"
    ]
  },
  "KE": {
    "name": "Kenya",
    "nativeName": "Kenya",
    "continent": "AF",
    "capital": "Nairobi",
    "currencyCode": "KES",
    "languages": [
      "en",
      "sw"
    ]
  },
  "KG": {
    "name": "Kyrgyzstan",
    "nativeName": "Кыргызстан",
    "continent": "AS",
    "capital": "Bishkek",
    "currencyCode": "KGS",
    "languages": [
      "ky",
      "ru"
    ]
  },
  "KH": {
    "name": "Cambodia",
    "nativeName": "Kâmpŭchéa",
    "continent": "AS",
    "capital": "Phnom Penh",
    "currencyCode": "KHR",
    "languages": [
      "km"
    ]
  },
  "KI": {
    "name": "Kiribati",
    "nativeName": "Kiribati",
    "continent": "OC",
    "capital": "South Tarawa",
    "currencyCode": "AUD",
    "languages": [
      "en"
    ]
  },
  "KM": {
    "name": "Comoros",
    "nativeName": "Komori",
    "continent": "AF",
    "capital": "Moroni",
    "currencyCode": "KMF",
    "languages": [
      "ar",
      "fr"
    ]
  },
  "KN": {
    "name": "Saint Kitts and Nevis",
    "nativeName": "Saint Kitts and Nevis",
    "continent": "NA",
    "capital": "Basseterre",
    "currencyCode": "XCD",
    "languages": [
      "en"
    ]
  },
  "KP": {
    "name": "North Korea",
    "nativeName": "북한",
    "continent": "AS",
    "capital": "Pyongyang",
    "currencyCode": "KPW",
    "languages": [
      "ko"
    ]
  },
  "KR": {
    "name": "South Korea",
    "nativeName": "대한민국",
    "continent": "AS",
    "capital": "Seoul",
    "currencyCode": "KRW",
    "languages": [
      "ko"
    ]
  },
  "KW": {
    "name": "Kuwait",
    "nativeName": "الكويت",
    "continent": "AS",
    "capital": "Kuwait City",
    "currencyCode": "KWD",
    "languages": [
      "ar"
    ]
  },
  "KY": {
    "name": "Cayman Islands",
    "nativeName": "Cayman Islands",
    "continent": "NA",
    "capital": "George Town",
    "currencyCode": "KYD",
    "languages": [
      "en"
    ]
  },
  "KZ": {
    "name": "Kazakhstan",
    "nativeName": "Қазақстан",
    "continent": "AS",
    "capital": "Astana",
    "currencyCode": "KZT",
    "languages": [
      "kk",
      "ru"
    ]
  },
  "LA": {
    "name": "Laos",
    "nativeName": "ສປປລາວ",
    "continent": "AS",
    "capital": "Vientiane",
    "currencyCode": "LAK",
    "languages": [
      "lo"
    ]
  },
  "LB": {
    "name": "Lebanon",
    "nativeName": "لبنان",
    "continent": "AS",
    "capital": "Beirut",
    "currencyCode": "LBP",
    "languages": [
      "ar",
      "fr"
    ]
  },
  "LC": {
    "name": "Saint Lucia",
    "nativeName": "Saint Lucia",
    "continent": "NA",
    "capital": "Castries",
    "currencyCode": "XCD",
    "languages": [
      "en"
    ]
  },
  "LI": {
    "name": "Liechtenstein",
    "nativeName": "Liechtenstein",
    "continent": "EU",
    "capital": "Vaduz",
    "currencyCode": "CHF",
    "languages": [
      "de"
    ]
  },
  "LK": {
    "name": "Sri Lanka",
    "nativeName": "śrī laṃkāva",
    "continent": "AS",
    "capital": "Colombo",
    "currencyCode": "LKR",
    "languages": [
      "si",
      "ta"
    ]
  },
  "LR": {
    "name": "Liberia",
    "nativeName": "Liberia",
    "continent": "AF",
    "capital": "Monrovia",
    "currencyCode": "LRD",
    "languages": [
      "en"
    ]
  },
  "LS": {
    "name": "Lesotho",
    "nativeName": "Lesotho",
    "continent": "AF",
    "capital": "Maseru",
    "currencyCode": "LSL",
    "languages": [
      "en",
      "st"
    ]
  },
  "LT": {
    "name": "Lithuania",
    "nativeName": "Lietuva",
    "continent": "EU",
    "capital": "Vilnius",
    "currencyCode": "EUR",
    "languages": [
      "lt"
    ]
  },
  "LU": {
    "name": "Luxembourg",
    "nativeName": "Luxembourg",
    "continent": "EU",
    "capital": "Luxembourg",
    "currencyCode": "EUR",
    "languages": [
      "fr",
      "de",
      "lb"
    ]
  },
  "LV": {
    "name": "Latvia",
    "nativeName": "Latvija",
    "continent": "EU",
    "capital": "Riga",
    "currencyCode": "EUR",
    "languages": [
      "lv"
    ]
  },
  "LY": {
    "name": "Libya",
    "nativeName": "‏ليبيا",
    "continent": "AF",
    "capital": "Tripoli",
    "currencyCode": "LYD",
    "languages": [
      "ar"
    ]
  },
  "MA": {
    "name": "Morocco",
    "nativeName": "المغرب",
    "continent": "AF",
    "capital": "Rabat",
    "currencyCode": "MAD",
    "languages": [
      "ar"
    ]
  },
  "MC": {
    "name": "Monaco",
    "nativeName": "Monaco",
    "continent": "EU",
    "capital": "Monaco",
    "currencyCode": "EUR",
    "languages": [
      "fr"
    ]
  },
  "MD": {
    "name": "Moldova",
    "nativeName": "Moldova",
    "continent": "EU",
    "capital": "Chișinău",
    "currencyCode": "MDL",
    "languages": [
      "ro"
    ]
  },
  "ME": {
    "name": "Montenegro",
    "nativeName": "Црна Гора",
    "continent": "EU",
    "capital": "Podgorica",
    "currencyCode": "EUR",
    "languages": [
      "sr",
      "bs",
      "sq",
      "hr"
    ]
  },
  "MF": {
    "name": "Saint Martin",
    "nativeName": "Saint-Martin",
    "continent": "NA",
    "capital": "Marigot",
    "currencyCode": "EUR",
    "languages": [
      "en",
      "fr",
      "nl"
    ]
  },
  "MG": {
    "name": "Madagascar",
    "nativeName": "Madagasikara",
    "continent": "AF",
    "capital": "Antananarivo",
    "currencyCode": "MGA",
    "languages": [
      "fr",
      "mg"
    ]
  },
  "MH": {
    "name": "Marshall Islands",
    "nativeName": "M̧ajeļ",
    "continent": "OC",
    "capital": "Majuro",
    "currencyCode": "USD",
    "languages": [
      "en",
      "mh"
    ]
  },
  "MK": {
    "name": "North Macedonia",
    "nativeName": "Северна Македонија",
    "continent": "EU",
    "capital": "Skopje",
    "currencyCode": "MKD",
    "languages": [
      "mk"
    ]
  },
  "ML": {
    "name": "Mali",
    "nativeName": "Mali",
    "continent": "AF",
    "capital": "Bamako",
    "currencyCode": "XOF",
    "languages": [
      "fr"
    ]
  },
  "MM": {
    "name": "Myanmar [Burma]",
    "nativeName": "မြန်မာ",
    "continent": "AS",
    "capital": "Naypyidaw",
    "currencyCode": "MMK",
    "languages": [
      "my"
    ]
  },
  "MN": {
    "name": "Mongolia",
    "nativeName": "Монгол улс",
    "continent": "AS",
    "capital": "Ulan Bator",
    "currencyCode": "MNT",
    "languages": [
      "mn"
    ]
  },
  "MO": {
    "name": "Macao",
    "nativeName": "澳門",
    "continent": "AS",
    "capital": "",
    "currencyCode": "MOP",
    "languages": [
      "zh",
      "pt"
    ]
  },
  "MP": {
    "name": "Northern Mariana Islands",
    "nativeName": "Northern Mariana Islands",
    "continent": "OC",
    "capital": "Saipan",
    "currencyCode": "USD",
    "languages": [
      "en",
      "ch"
    ]
  },
  "MQ": {
    "name": "Martinique",
    "nativeName": "Martinique",
    "continent": "NA",
    "capital": "Fort-de-France",
    "currencyCode": "EUR",
    "languages": [
      "fr"
    ]
  },
  "MR": {
    "name": "Mauritania",
    "nativeName": "موريتانيا",
    "continent": "AF",
    "capital": "Nouakchott",
    "currencyCode": "MRU",
    "languages": [
      "ar"
    ]
  },
  "MS": {
    "name": "Montserrat",
    "nativeName": "Montserrat",
    "continent": "NA",
    "capital": "Plymouth",
    "currencyCode": "XCD",
    "languages": [
      "en"
    ]
  },
  "MT": {
    "name": "Malta",
    "nativeName": "Malta",
    "continent": "EU",
    "capital": "Valletta",
    "currencyCode": "EUR",
    "languages": [
      "mt",
      "en"
    ]
  },
  "MU": {
    "name": "Mauritius",
    "nativeName": "Maurice",
    "continent": "AF",
    "capital": "Port Louis",
    "currencyCode": "MUR",
    "languages": [
      "en"
    ]
  },
  "MV": {
    "name": "Maldives",
    "nativeName": "Maldives",
    "continent": "AS",
    "capital": "Malé",
    "currencyCode": "MVR",
    "languages": [
      "dv"
    ]
  },
  "MW": {
    "name": "Malawi",
    "nativeName": "Malawi",
    "continent": "AF",
    "capital": "Lilongwe",
    "currencyCode": "MWK",
    "languages": [
      "en",
      "ny"
    ]
  },
  "MX": {
    "name": "Mexico",
    "nativeName": "México",
    "continent": "NA",
    "capital": "Mexico City",
    "currencyCode": "MXN",
    "languages": [
      "es"
    ]
  },
  "MY": {
    "name": "Malaysia",
    "nativeName": "Malaysia",
    "continent": "AS",
    "capital": "Kuala Lumpur",
    "currencyCode": "MYR",
    "languages": [
      "ms"
    ]
  },
  "MZ": {
    "name": "Mozambique",
    "nativeName": "Moçambique",
    "continent": "AF",
    "capital": "Maputo",
    "currencyCode": "MZN",
    "languages": [
      "pt"
    ]
  },
  "NA": {
    "name": "Namibia",
    "nativeName": "Namibia",
    "continent": "AF",
    "capital": "Windhoek",
    "currencyCode": "NAD",
    "languages": [
      "en",
      "af"
    ]
  },
  "NC": {
    "name": "New Caledonia",
    "nativeName": "Nouvelle-Calédonie",
    "continent": "OC",
    "capital": "Nouméa",
    "currencyCode": "XPF",
    "languages": [
      "fr"
    ]
  },
  "NE": {
    "name": "Niger",
    "nativeName": "Niger",
    "continent": "AF",
    "capital": "Niamey",
    "currencyCode": "XOF",
    "languages": [
      "fr"
    ]
  },
  "NF": {
    "name": "Norfolk Island",
    "nativeName": "Norfolk Island",
    "continent": "OC",
    "capital": "Kingston",
    "currencyCode": "AUD",
    "languages": [
      "en"
    ]
  },
  "NG": {
    "name": "Nigeria",
    "nativeName": "Nigeria",
    "continent": "AF",
    "capital": "Abuja",
    "currencyCode": "NGN",
    "languages": [
      "en"
    ]
  },
  "NI": {
    "name": "Nicaragua",
    "nativeName": "Nicaragua",
    "continent": "NA",
    "capital": "Managua",
    "currencyCode": "NIO",
    "languages": [
      "es"
    ]
  },
  "NL": {
    "name": "Netherlands",
    "nativeName": "Nederland",
    "continent": "EU",
    "capital": "Amsterdam",
    "currencyCode": "EUR",
    "languages": [
      "nl"
    ]
  },
  "NO": {
    "name": "Norway",
    "nativeName": "Norge",
    "continent": "EU",
    "capital": "Oslo",
    "currencyCode": "NOK",
    "languages": [
      "no",
      "nb",
      "nn"
    ]
  },
  "NP": {
    "name": "Nepal",
    "nativeName": "नपल",
    "continent": "AS",
    "capital": "Kathmandu",
    "currencyCode": "NPR",
    "languages": [
      "ne"
    ]
  },
  "NR": {
    "name": "Nauru",
    "nativeName": "Nauru",
    "continent": "OC",
    "capital": "Yaren",
    "currencyCode": "AUD",
    "languages": [
      "en",
      "na"
    ]
  },
  "NU": {
    "name": "Niue",
    "nativeName": "Niuē",
    "continent": "OC",
    "capital": "Alofi",
    "currencyCode": "NZD",
    "languages": [
      "en"
    ]
  },
  "NZ": {
    "name": "New Zealand",
    "nativeName": "New Zealand",
    "continent": "OC",
    "capital": "Wellington",
    "currencyCode": "NZD",
    "languages": [
      "en",
      "mi"
    ]
  },
  "OM": {
    "name": "Oman",
    "nativeName": "عمان",
    "continent": "AS",
    "capital": "Muscat",
    "currencyCode": "OMR",
    "languages": [
      "ar"
    ]
  },
  "PA": {
    "name": "Panama",
    "nativeName": "Panamá",
    "continent": "NA",
    "capital": "Panama City",
    "currencyCode": "PAB",
    "languages": [
      "es"
    ]
  },
  "PE": {
    "name": "Peru",
    "nativeName": "Perú",
    "continent": "SA",
    "capital": "Lima",
    "currencyCode": "PEN",
    "languages": [
      "es"
    ]
  },
  "PF": {
    "name": "French Polynesia",
    "nativeName": "Polynésie française",
    "continent": "OC",
    "capital": "Papeetē",
    "currencyCode": "XPF",
    "languages": [
      "fr"
    ]
  },
  "PG": {
    "name": "Papua New Guinea",
    "nativeName": "Papua Niugini",
    "continent": "OC",
    "capital": "Port Moresby",
    "currencyCode": "PGK",
    "languages": [
      "en"
    ]
  },
  "PH": {
    "name": "Philippines",
    "nativeName": "Pilipinas",
    "continent": "AS",
    "capital": "Manila",
    "currencyCode": "PHP",
    "languages": [
      "en"
    ]
  },
  "PK": {
    "name": "Pakistan",
    "nativeName": "Pakistan",
    "continent": "AS",
    "capital": "Islamabad",
    "currencyCode": "PKR",
    "languages": [
      "en",
      "ur"
    ]
  },
  "PL": {
    "name": "Poland",
    "nativeName": "Polska",
    "continent": "EU",
    "capital": "Warsaw",
    "currencyCode": "PLN",
    "languages": [
      "pl"
    ]
  },
  "PM": {
    "name": "Saint Pierre and Miquelon",
    "nativeName": "Saint-Pierre-et-Miquelon",
    "continent": "NA",
    "capital": "Saint-Pierre",
    "currencyCode": "EUR",
    "languages": [
      "fr"
    ]
  },
  "PN": {
    "name": "Pitcairn Islands",
    "nativeName": "Pitcairn Islands",
    "continent": "OC",
    "capital": "Adamstown",
    "currencyCode": "NZD",
    "languages": [
      "en"
    ]
  },
  "PR": {
    "name": "Puerto Rico",
    "nativeName": "Puerto Rico",
    "continent": "NA",
    "capital": "San Juan",
    "currencyCode": "USD",
    "languages": [
      "es",
      "en"
    ]
  },
  "PS": {
    "name": "Palestine",
    "nativeName": "فلسطين",
    "continent": "AS",
    "capital": "Ramallah",
    "currencyCode": "ILS",
    "languages": [
      "ar"
    ]
  },
  "PT": {
    "name": "Portugal",
    "nativeName": "Portugal",
    "continent": "EU",
    "capital": "Lisbon",
    "currencyCode": "EUR",
    "languages": [
      "pt"
    ]
  },
  "PW": {
    "name": "Palau",
    "nativeName": "Palau",
    "continent": "OC",
    "capital": "Ngerulmud",
    "currencyCode": "USD",
    "languages": [
      "en"
    ]
  },
  "PY": {
    "name": "Paraguay",
    "nativeName": "Paraguay",
    "continent": "SA",
    "capital": "Asunción",
    "currencyCode": "PYG",
    "languages": [
      "es",
      "gn"
    ]
  },
  "QA": {
    "name": "Qatar",
    "nativeName": "قطر",
    "continent": "AS",
    "capital": "Doha",
    "currencyCode": "QAR",
    "languages": [
      "ar"
    ]
  },
  "RE": {
    "name": "Réunion",
    "nativeName": "La Réunion",
    "continent": "AF",
    "capital": "Saint-Denis",
    "currencyCode": "EUR",
    "languages": [
      "fr"
    ]
  },
  "RO": {
    "name": "Romania",
    "nativeName": "România",
    "continent": "EU",
    "capital": "Bucharest",
    "currencyCode": "RON",
    "languages": [
      "ro"
    ]
  },
  "RS": {
    "name": "Serbia",
    "nativeName": "Србија",
    "continent": "EU",
    "capital": "Belgrade",
    "currencyCode": "RSD",
    "languages": [
      "sr"
    ]
  },
  "RU": {
    "name": "Russia",
    "nativeName": "Россия",
    "continent": "EU",
    "capital": "Moscow",
    "currencyCode": "RUB",
    "languages": [
      "ru"
    ]
  },
  "RW": {
    "name": "Rwanda",
    "nativeName": "Rwanda",
    "continent": "AF",
    "capital": "Kigali",
    "currencyCode": "RWF",
    "languages": [
      "rw",
      "en",
      "fr"
    ]
  },
  "SA": {
    "name": "Saudi Arabia",
    "nativeName": "العربية السعودية",
    "continent": "AS",
    "capital": "Riyadh",
    "currencyCode": "SAR",
    "languages": [
      "ar"
    ]
  },
  "SB": {
    "name": "Solomon Islands",
    "nativeName": "Solomon Islands",
    "continent": "OC",
    "capital": "Honiara",
    "currencyCode": "SBD",
    "languages": [
      "en"
    ]
  },
  "SC": {
    "name": "Seychelles",
    "nativeName": "Seychelles",
    "continent": "AF",
    "capital": "Victoria",
    "currencyCode": "SCR",
    "languages": [
      "fr",
      "en"
    ]
  },
  "SD": {
    "name": "Sudan",
    "nativeName": "السودان",
    "continent": "AF",
    "capital": "Khartoum",
    "currencyCode": "SDG",
    "languages": [
      "ar",
      "en"
    ]
  },
  "SE": {
    "name": "Sweden",
    "nativeName": "Sverige",
    "continent": "EU",
    "capital": "Stockholm",
    "currencyCode": "SEK",
    "languages": [
      "sv"
    ]
  },
  "SG": {
    "name": "Singapore",
    "nativeName": "Singapore",
    "continent": "AS",
    "capital": "Singapore",
    "currencyCode": "SGD",
    "languages": [
      "en",
      "ms",
      "ta",
      "zh"
    ]
  },
  "SH": {
    "name": "Saint Helena",
    "nativeName": "Saint Helena",
    "continent": "AF",
    "capital": "Jamestown",
    "currencyCode": "SHP",
    "languages": [
      "en"
    ]
  },
  "SI": {
    "name": "Slovenia",
    "nativeName": "Slovenija",
    "continent": "EU",
    "capital": "Ljubljana",
    "currencyCode": "EUR",
    "languages": [
      "sl"
    ]
  },
  "SJ": {
    "name": "Svalbard and Jan Mayen",
    "nativeName": "Svalbard og Jan Mayen",
    "continent": "EU",
    "capital": "Longyearbyen",
    "currencyCode": "NOK",
    "languages": [
      "no"
    ]
  },
  "SK": {
    "name": "Slovakia",
    "nativeName": "Slovensko",
    "continent": "EU",
    "capital": "Bratislava",
    "currencyCode": "EUR",
    "languages": [
      "sk"
    ]
  },
  "SL": {
    "name": "Sierra Leone",
    "nativeName": "Sierra Leone",
    "continent": "AF",
    "capital": "Freetown",
    "currencyCode": "SLL",
    "languages": [
      "en"
    ]
  },
  "SM": {
    "name": "San Marino",
    "nativeName": "San Marino",
    "continent": "EU",
    "capital": "City of San Marino",
    "currencyCode": "EUR",
    "languages": [
      "it"
    ]
  },
  "SN": {
    "name": "Senegal",
    "nativeName": "Sénégal",
    "continent": "AF",
    "capital": "Dakar",
    "currencyCode": "XOF",
    "languages": [
      "fr"
    ]
  },
  "SO": {
    "name": "Somalia",
    "nativeName": "Soomaaliya",
    "continent": "AF",
    "capital": "Mogadishu",
    "currencyCode": "SOS",
    "languages": [
      "so",
      "ar"
    ]
  },
  "SR": {
    "name": "Suriname",
    "nativeName": "Suriname",
    "continent": "SA",
    "capital": "Paramaribo",
    "currencyCode": "SRD",
    "languages": [
      "nl"
    ]
  },
  "SS": {
    "name": "South Sudan",
    "nativeName": "South Sudan",
    "continent": "AF",
    "capital": "Juba",
    "currencyCode": "SSP",
    "languages": [
      "en"
    ]
  },
  "ST": {
    "name": "São Tomé and Príncipe",
    "nativeName": "São Tomé e Príncipe",
    "continent": "AF",
    "capital": "São Tomé",
    "currencyCode": "STN",
    "languages": [
      "pt"
    ]
  },
  "SV": {
    "name": "El Salvador",
    "nativeName": "El Salvador",
    "continent": "NA",
    "capital": "San Salvador",
    "currencyCode": "SVC",
    "languages": [
      "es"
    ]
  },
  "SX": {
    "name": "Sint Maarten",
    "nativeName": "Sint Maarten",
    "continent": "NA",
    "capital": "Philipsburg",
    "currencyCode": "ANG",
    "languages": [
      "nl",
      "en"
    ]
  },
  "SY": {
    "name": "Syria",
    "nativeName": "سوريا",
    "continent": "AS",
    "capital": "Damascus",
    "currencyCode": "SYP",
    "languages": [
      "ar"
    ]
  },
  "SZ": {
    "name": "Swaziland",
    "nativeName": "Swaziland",
    "continent": "AF",
    "capital": "Lobamba",
    "currencyCode": "SZL",
    "languages": [
      "en",
      "ss"
    ]
  },
  "TC": {
    "name": "Turks and Caicos Islands",
    "nativeName": "Turks and Caicos Islands",
    "continent": "NA",
    "capital": "Cockburn Town",
    "currencyCode": "USD",
    "languages": [
      "en"
    ]
  },
  "TD": {
    "name": "Chad",
    "nativeName": "Tchad",
    "continent": "AF",
    "capital": "N'Djamena",
    "currencyCode": "XAF",
    "languages": [
      "fr",
      "ar"
    ]
  },
  "TF": {
    "name": "French Southern Territories",
    "nativeName": "Territoire des Terres australes et antarctiques fr",
    "continent": "AN",
    "capital": "Port-aux-Français",
    "currencyCode": "EUR",
    "languages": [
      "fr"
    ]
  },
  "TG": {
    "name": "Togo",
    "nativeName": "Togo",
    "continent": "AF",
    "capital": "Lomé",
    "currencyCode": "XOF",
    "languages": [
      "fr"
    ]
  },
  "TH": {
    "name": "Thailand",
    "nativeName": "ประเทศไทย",
    "continent": "AS",
    "capital": "Bangkok",
    "currencyCode": "THB",
    "languages": [
      "th"
    ]
  },
  "TJ": {
    "name": "Tajikistan",
    "nativeName": "Тоҷикистон",
    "continent": "AS",
    "capital": "Dushanbe",
    "currencyCode": "TJS",
    "languages": [
      "tg",
      "ru"
    ]
  },
  "TK": {
    "name": "Tokelau",
    "nativeName": "Tokelau",
    "continent": "OC",
    "capital": "Fakaofo",
    "currencyCode": "NZD",
    "languages": [
      "en"
    ]
  },
  "TL": {
    "name": "East Timor",
    "nativeName": "Timor-Leste",
    "continent": "OC",
    "capital": "Dili",
    "currencyCode": "USD",
    "languages": [
      "pt"
    ]
  },
  "TM": {
    "name": "Turkmenistan",
    "nativeName": "Türkmenistan",
    "continent": "AS",
    "capital": "Ashgabat",
    "currencyCode": "TMT",
    "languages": [
      "tk",
      "ru"
    ]
  },
  "TN": {
    "name": "Tunisia",
    "nativeName": "تونس",
    "continent": "AF",
    "capital": "Tunis",
    "currencyCode": "TND",
    "languages": [
      "ar"
    ]
  },
  "TO": {
    "name": "Tonga",
    "nativeName": "Tonga",
    "continent": "OC",
    "capital": "Nuku'alofa",
    "currencyCode": "TOP",
    "languages": [
      "en",
      "to"
    ]
  },
  "TR": {
    "name": "Turkey",
    "nativeName": "Türkiye",
    "continent": "AS",
    "capital": "Ankara",
    "currencyCode": "TRY",
    "languages": [
      "tr"
    ]
  },
  "TT": {
    "name": "Trinidad and Tobago",
    "nativeName": "Trinidad and Tobago",
    "continent": "NA",
    "capital": "Port of Spain",
    "currencyCode": "TTD",
    "languages": [
      "en"
    ]
  },
  "TV": {
    "name": "Tuvalu",
    "nativeName": "Tuvalu",
    "continent": "OC",
    "capital": "Funafuti",
    "currencyCode": "AUD",
    "languages": [
      "en"
    ]
  },
  "TW": {
    "name": "Taiwan",
    "nativeName": "臺灣",
    "continent": "AS",
    "capital": "Taipei",
    "currencyCode": "TWD",
    "languages": [
      "zh"
    ]
  },
  "TZ": {
    "name": "Tanzania",
    "nativeName": "Tanzania",
    "continent": "AF",
    "capital": "Dodoma",
    "currencyCode": "TZS",
    "languages": [
      "sw",
      "en"
    ]
  },
  "UA": {
    "name": "Ukraine",
    "nativeName": "Україна",
    "continent": "EU",
    "capital": "Kyiv",
    "currencyCode": "UAH",
    "languages": [
      "uk"
    ]
  },
  "UG": {
    "name": "Uganda",
    "nativeName": "Uganda",
    "continent": "AF",
    "capital": "Kampala",
    "currencyCode": "UGX",
    "languages": [
      "en",
      "sw"
    ]
  },
  "UM": {
    "name": "U.S. Minor Outlying Islands",
    "nativeName": "United States Minor Outlying Islands",
    "continent": "OC",
    "capital": "",
    "currencyCode": "USD",
    "languages": [
      "en"
    ]
  },
  "US": {
    "name": "United States",
    "nativeName": "United States",
    "continent": "NA",
    "capital": "Washington D.C.",
    "currencyCode": "USD",
    "languages": [
      "en"
    ]
  },
  "UY": {
    "name": "Uruguay",
    "nativeName": "Uruguay",
    "continent": "SA",
    "capital": "Montevideo",
    "currencyCode": "UYI",
    "languages": [
      "es"
    ]
  },
  "UZ": {
    "name": "Uzbekistan",
    "nativeName": "O‘zbekiston",
    "continent": "AS",
    "capital": "Tashkent",
    "currencyCode": "UZS",
    "languages": [
      "uz",
      "ru"
    ]
  },
  "VA": {
    "name": "Vatican City",
    "nativeName": "Vaticano",
    "continent": "EU",
    "capital": "Vatican City",
    "currencyCode": "EUR",
    "languages": [
      "it",
      "la"
    ]
  },
  "VC": {
    "name": "Saint Vincent and the Grenadines",
    "nativeName": "Saint Vincent and the Grenadines",
    "continent": "NA",
    "capital": "Kingstown",
    "currencyCode": "XCD",
    "languages": [
      "en"
    ]
  },
  "VE": {
    "name": "Venezuela",
    "nativeName": "Venezuela",
    "continent": "SA",
    "capital": "Caracas",
    "currencyCode": "VES",
    "languages": [
      "es"
    ]
  },
  "VG": {
    "name": "British Virgin Islands",
    "nativeName": "British Virgin Islands",
    "continent": "NA",
    "capital": "Road Town",
    "currencyCode": "USD",
    "languages": [
      "en"
    ]
  },
  "VI": {
    "name": "U.S. Virgin Islands",
    "nativeName": "United States Virgin Islands",
    "continent": "NA",
    "capital": "Charlotte Amalie",
    "currencyCode": "USD",
    "languages": [
      "en"
    ]
  },
  "VN": {
    "name": "Vietnam",
    "nativeName": "Việt Nam",
    "continent": "AS",
    "capital": "Hanoi",
    "currencyCode": "VND",
    "languages": [
      "vi"
    ]
  },
  "VU": {
    "name": "Vanuatu",
    "nativeName": "Vanuatu",
    "continent": "OC",
    "capital": "Port Vila",
    "currencyCode": "VUV",
    "languages": [
      "bi",
      "en",
      "fr"
    ]
  },
  "WF": {
    "name": "Wallis and Futuna",
    "nativeName": "Wallis et Futuna",
    "continent": "OC",
    "capital": "Mata-Utu",
    "currencyCode": "XPF",
    "languages": [
      "fr"
    ]
  },
  "WS": {
    "name": "Samoa",
    "nativeName": "Samoa",
    "continent": "OC",
    "capital": "Apia",
    "currencyCode": "WST",
    "languages": [
      "sm",
      "en"
    ]
  },
  "XK": {
    "name": "Kosovo",
    "nativeName": "Republika e Kosovës",
    "continent": "EU",
    "capital": "Pristina",
    "currencyCode": "EUR",
    "languages": [
      "sq",
      "sr"
    ]
  },
  "YE": {
    "name": "Yemen",
    "nativeName": "اليَمَن",
    "continent": "AS",
    "capital": "Sana'a",
    "currencyCode": "YER",
    "languages": [
      "ar"
    ]
  },
  "YT": {
    "name": "Mayotte",
    "nativeName": "Mayotte",
    "continent": "AF",
    "capital": "Mamoudzou",
    "currencyCode": "EUR",
    "languages": [
      "fr"
    ]
  },
  "ZA": {
    "name": "South Africa",
    "nativeName": "South Africa",
    "continent": "AF",
    "capital": "Pretoria",
    "currencyCode": "ZAR",
    "languages": [
      "af",
      "en",
      "nr",
      "st",
      "ss",
      "tn",
      "ts",
      "ve",
      "xh",
      "zu"
    ]
  },
  "ZM": {
    "name": "Zambia",
    "nativeName": "Zambia",
    "continent": "AF",
    "capital": "Lusaka",
    "currencyCode": "ZMW",
    "languages": [
      "en"
    ]
  },
  "ZW": {
    "name": "Zimbabwe",
    "nativeName": "Zimbabwe",
    "continent": "AF",
    "capital": "Harare",
    "currencyCode": "USD",
    "languages": [
      "en",
      "sn",
      "nd"
    ]
  }
}